<?xml version="1.0" encoding="UTF-8"?>
<kml xmlns="http://www.opengis.net/kml/2.2">
  <Document id="root_doc">
    <Schema id="limites_lendeng" name="limites_lendeng">
      <SimpleField name="Shape_Leng" type="float"/>
      <SimpleField name="Shape_Area" type="float"/>
    </Schema>
    <Schema id="diffrence_symtrique.schema">
      <SimpleField name="Shape_Leng" type="float"/>
      <SimpleField name="Shape_Area" type="float"/>
    </Schema>
    <Folder>
      <name>limites_lendeng</name>
      <Placemark id="limites_lendeng.1">
        <Style>
          <LineStyle>
            <color>ff0000ff</color>
          </LineStyle>
          <PolyStyle>
            <fill>0</fill>
          </PolyStyle>
        </Style>
        <ExtendedData>
          <SchemaData schemaUrl="#limites_lendeng">
            <SimpleData name="Shape_Leng">5692.56830551000</SimpleData>
            <SimpleData name="Shape_Area">855641.11646000005</SimpleData>
          </SchemaData>
        </ExtendedData>
        <MultiGeometry>
          <Polygon>
            <outerBoundaryIs>
              <LinearRing>
                <coordinates>
                  -17.2488776720655,14.7276815471174,0
                  -17.248693774372,14.7277157174457,0
                  -17.2485823108186,14.7274534102646,0
                  -17.2484903537243,14.7273614700087,0
                  -17.2479314507035,14.7273349182704,0
                  -17.247725975347,14.7273757495157,0
                  -17.2477247797881,14.7272591392184,0
                  -17.2475506576844,14.7272635840708,0
                  -17.2474910993879,14.7273641674233,0
                  -17.2473656573974,14.7274235803317,0
                  -17.2472712219276,14.7274999080779,0
                  -17.2471027375895,14.7275015439051,0
                  -17.2469717611351,14.727434397108,0
                  -17.2469667658055,14.7273473746554,0
                  -17.2468457226569,14.7273998488157,0
                  -17.2466707129964,14.7275317750739,0
                  -17.24649165399,14.7276271437422,0
                  -17.2459593474196,14.7275651174585,0
                  -17.2459790987293,14.7274971624449,0
                  -17.2460700997254,14.7274021671215,0
                  -17.2461293246707,14.7271918637561,0
                  -17.2460515475548,14.7271018159184,0
                  -17.2459998545092,14.726985980121,0
                  -17.2459051839959,14.7268266115504,0
                  -17.2458397781628,14.7266695439903,0
                  -17.2458727391635,14.7265073223515,0
                  -17.2458186729879,14.7264155471643,0
                  -17.2458990854808,14.7262857375536,0
                  -17.2456560982647,14.7261131615321,0
                  -17.2456987575239,14.725892696067,0
                  -17.2457428243483,14.7258964934736,0
                  -17.2458236275798,14.7257153827807,0
                  -17.245417590206,14.7254609720284,0
                  -17.2436914684208,14.7255687677614,0
                  -17.243190950378,14.7255991977765,0
                  -17.2430587767998,14.725621641234,0
                  -17.2425766270746,14.724406491191,0
                  -17.2428658676551,14.7236534115218,0
                  -17.2429780046788,14.7233263143805,0
                  -17.2430426973972,14.7231376090867,0
                  -17.2432970565749,14.7231351445779,0
                  -17.2434387818391,14.7231464966844,0
                  -17.2434673434508,14.7230010901731,0
                  -17.2435600975743,14.7227061632178,0
                  -17.243658312203,14.7226287595661,0
                  -17.2436568180154,14.7224827082526,0
                  -17.2437185414109,14.7224291483711,0
                  -17.2436296274502,14.7223133832686,0
                  -17.2434301039778,14.722259169076,0
                  -17.2438193175841,14.7215427398346,0
                  -17.2439680405884,14.7211528436015,0
                  -17.2440904076609,14.7206231536419,0
                  -17.2439064359942,14.7199401033627,0
                  -17.2441027662614,14.7198149791101,0
                  -17.24383665972,14.7190491672751,0
                  -17.2444044637053,14.718746445478,0
                  -17.2443817383719,14.7186753495608,0
                  -17.2444631871012,14.7184453283595,0
                  -17.2445050967592,14.7183598379167,0
                  -17.2443968743807,14.7183165158933,0
                  -17.2443250368125,14.7181508230593,0
                  -17.2442028140485,14.7180502132131,0
                  -17.2437202441916,14.7178971169927,0
                  -17.2436718992671,14.718004051881,0
                  -17.2435298239446,14.7179667632146,0
                  -17.2433699314142,14.7178567893995,0
                  -17.2434749048176,14.7174840319208,0
                  -17.243891469627,14.7177349455608,0
                  -17.2439382300347,14.717652546191,0
                  -17.244201932414,14.7174197977645,0
                  -17.244310165528,14.7173658468551,0
                  -17.2443798075712,14.7174195034586,0
                  -17.2447304842907,14.7171867140005,0
                  -17.2449023466834,14.7170100774144,0
                  -17.2448065404314,14.7169375358481,0
                  -17.2444810763318,14.7169897034295,0
                  -17.2443380471871,14.7165839557089,0
                  -17.2445753605239,14.7164078642584,0
                  -17.24497345213,14.7163531169619,0
                  -17.245179305947,14.7156454450087,0
                  -17.2453866399895,14.7155342960854,0
                  -17.2452282779611,14.7154679936818,0
                  -17.2450915158969,14.7153369629486,0
                  -17.2450995483134,14.7151515660984,0
                  -17.2450473102854,14.7150921995548,0
                  -17.2451991190164,14.7146925349824,0
                  -17.2453664691843,14.7147193534511,0
                  -17.2453311191253,14.7148493129613,0
                  -17.2453909626035,14.7148427875919,0
                  -17.2455399225241,14.7149424203887,0
                  -17.2456295471413,14.7148324458716,0
                  -17.2457111043171,14.7146613114608,0
                  -17.2456299619726,14.7143893078108,0
                  -17.2456308223488,14.7140878489762,0
                  -17.2456959751776,14.7139874868071,0
                  -17.2457028705088,14.7136195315287,0
                  -17.245631260029,14.7129491998556,0
                  -17.2456043830229,14.7128930905488,0
                  -17.2456445048742,14.712657404436,0
                  -17.2456472055658,14.7125263320203,0
                  -17.2456367423597,14.7124003882811,0
                  -17.2457295987376,14.712169055631,0
                  -17.2459009969219,14.7122495535803,0
                  -17.2462131471261,14.7125495805716,0
                  -17.2463734832807,14.7126801635634,0
                  -17.2466556083948,14.7130518250361,0
                  -17.2470673769365,14.7138371944698,0
                  -17.2472757243015,14.7142357224135,0
                  -17.2474026319185,14.7145178760648,0
                  -17.2475595956006,14.7147900041764,0
                  -17.2476719823221,14.7150396311573,0
                  -17.2478724930822,14.7153773233569,0
                  -17.2480377116229,14.7152937927473,0
                  -17.2480953570477,14.7152538599179,0
                  -17.2483240062805,14.7152516406139,0
                  -17.2485420969869,14.7152867690956,0
                  -17.2486992318984,14.7152458703039,0
                  -17.2487882943751,14.715288635529,0
                  -17.2487709603871,14.7154122438275,0
                  -17.2486374909589,14.7154135396001,0
                  -17.2486382433694,14.715486958953,0
                  -17.2487900027476,14.7154772462686,0
                  -17.2487806553951,14.7157315835505,0
                  -17.2488638377828,14.7156421717045,0
                  -17.249018680187,14.7157118857524,0
                  -17.2490360998283,14.7158053146553,0
                  -17.2491569248459,14.7158570975618,0
                  -17.24916882999,14.7158951626111,0
                  -17.2491636808343,14.7160580159696,0
                  -17.2489885144562,14.716073993651,0
                  -17.249065763842,14.7162330797027,0
                  -17.2491884706209,14.7162603006771,0
                  -17.2491412860625,14.7163779798262,0
                  -17.2491119014842,14.7167358461605,0
                  -17.2489436811375,14.7168466338763,0
                  -17.248923267027,14.7169412595923,0
                  -17.2489338510254,14.7169667187139,0
                  -17.2491011168859,14.7169906554392,0
                  -17.2490757328668,14.7171364757975,0
                  -17.2490462256357,14.7171553787648,0
                  -17.2490941095892,14.7174757362437,0
                  -17.2487853481114,14.7174144155039,0
                  -17.2486759114711,14.7173657565901,0
                  -17.2487178729891,14.7175430003306,0
                  -17.2486905689079,14.7175507927909,0
                  -17.2486962239969,14.7176030209122,0
                  -17.2486870004084,14.7176419976961,0
                  -17.2486513741636,14.7176566176517,0
                  -17.2486078034743,14.7176570406973,0
                  -17.2484662352406,14.7176657148417,0
                  -17.2485230593852,14.7181533628114,0
                  -17.2485572680509,14.7183103658661,0
                  -17.2487583524187,14.718430755541,0
                  -17.2490390821954,14.7183567739333,0
                  -17.2490633409458,14.7183910416072,0
                  -17.2490742165405,14.7185199064787,0
                  -17.2490803448142,14.7186044195826,0
                  -17.2491275460089,14.7187109829944,0
                  -17.2491649734042,14.7187416405316,0
                  -17.2492610338861,14.7192135116283,0
                  -17.2489531454284,14.7192919217865,0
                  -17.2490376792938,14.7195072542109,0
                  -17.2491082283825,14.7194593421753,0
                  -17.2492087626999,14.7194417479068,0
                  -17.2492767487386,14.7194069791346,0
                  -17.2492947203306,14.7194026194009,0
                  -17.2493537581057,14.7193937460754,0
                  -17.2494402252918,14.7193929061532,0
                  -17.2494674207003,14.7196633696945,0
                  -17.2495269908105,14.7198448088395,0
                  -17.2495532209702,14.7198399071472,0
                  -17.2496713762499,14.7203176123695,0
                  -17.2494266837856,14.7204083560836,0
                  -17.2492978322325,14.7204561406863,0
                  -17.2497172309417,14.7212313100013,0
                  -17.2497224158788,14.7213191120223,0
                  -17.2503680510244,14.7222924488543,0
                  -17.2506123079708,14.7226000416391,0
                  -17.2508496810258,14.7230699990282,0
                  -17.2507932290635,14.7231406773908,0
                  -17.2508405599547,14.72320024797,0
                  -17.250825128887,14.7234992776999,0
                  -17.2508514148422,14.7236569714575,0
                  -17.2508914495637,14.7236686624482,0
                  -17.2509420228254,14.7241216882625,0
                  -17.2508999931319,14.724410094446,0
                  -17.250757655977,14.7247925831955,0
                  -17.2506028171281,14.7247512376645,0
                  -17.2504698675644,14.7250085128798,0
                  -17.2503563790523,14.7250096161621,0
                  -17.2502716520441,14.725262731586,0
                  -17.2499250041109,14.7251629962053,0
                  -17.249617255712,14.7258628672605,0
                  -17.2494732169209,14.7258179130852,0
                  -17.2493720405511,14.7259587976405,0
                  -17.2494088965253,14.7260738785612,0
                  -17.2494947948014,14.7261507079358,0
                  -17.2494536504823,14.7262369470917,0
                  -17.249898722959,14.7264238000237,0
                  -17.2499003671289,14.7265840202635,0
                  -17.2499476726659,14.7266349940716,0
                  -17.2500310589316,14.7266341835007,0
                  -17.2498622282138,14.7268316681874,0
                  -17.249785654402,14.7270755840489,0
                  -17.2496563434156,14.7273642070272,0
                  -17.2494353718683,14.7272447688917,0
                  -17.2492731933132,14.7275028301846,0
                  -17.2489655004482,14.7278037532121,0
                  -17.2488776720655,14.7276815471174,0
                </coordinates>
              </LinearRing>
            </outerBoundaryIs>
          </Polygon>
        </MultiGeometry>
      </Placemark>
    </Folder>
    <Document id="diffrence_symtrique">
      <name>diffrence_symtrique</name>
      <Placemark id="diffrence_symtrique.1">
        <Polygon>
          <outerBoundaryIs>
            <LinearRing>
              <coordinates>
                -15.9389293415371,15.4050207049173,0
                -15.8950589509611,14.0724208550097,0
                -18.2424860007447,14.0435479114457,0
                -18.2645724201921,15.3808480754228,0
                -15.9389293415371,15.4050207049173,0
              </coordinates>
            </LinearRing>
          </outerBoundaryIs>
          <innerBoundaryIs>
            <LinearRing>
              <coordinates>
                -17.2489655004482,14.7278037532121,0
                -17.2492731933132,14.7275028301846,0
                -17.2494353718683,14.7272447688917,0
                -17.2496563434156,14.7273642070272,0
                -17.249785654402,14.7270755840489,0
                -17.2498622282138,14.7268316681874,0
                -17.2500310589316,14.7266341835007,0
                -17.2499476726659,14.7266349940716,0
                -17.2499003671289,14.7265840202635,0
                -17.249898722959,14.7264238000237,0
                -17.2494536504823,14.7262369470917,0
                -17.2494947948014,14.7261507079358,0
                -17.2494088965253,14.7260738785612,0
                -17.2493720405511,14.7259587976405,0
                -17.2494732169209,14.7258179130852,0
                -17.249617255712,14.7258628672605,0
                -17.2499250041109,14.7251629962053,0
                -17.2502716520441,14.725262731586,0
                -17.2503563790523,14.7250096161621,0
                -17.2504698675644,14.7250085128798,0
                -17.2506028171281,14.7247512376645,0
                -17.250757655977,14.7247925831955,0
                -17.2508999931319,14.724410094446,0
                -17.2509420228254,14.7241216882625,0
                -17.2508914495637,14.7236686624482,0
                -17.2508514148422,14.7236569714575,0
                -17.250825128887,14.7234992776999,0
                -17.2508405599547,14.72320024797,0
                -17.2507932290635,14.7231406773908,0
                -17.2508496810258,14.7230699990282,0
                -17.2506123079708,14.7226000416391,0
                -17.2503680510244,14.7222924488543,0
                -17.2497224158788,14.7213191120223,0
                -17.2497172309417,14.7212313100013,0
                -17.2492978322325,14.7204561406863,0
                -17.2494266837856,14.7204083560836,0
                -17.2496713762499,14.7203176123695,0
                -17.2495532209702,14.7198399071472,0
                -17.2495269908105,14.7198448088395,0
                -17.2494674207003,14.7196633696945,0
                -17.2494402252918,14.7193929061532,0
                -17.2493537581057,14.7193937460754,0
                -17.2492947203306,14.7194026194009,0
                -17.2492767487386,14.7194069791346,0
                -17.2492087626999,14.7194417479068,0
                -17.2491082283825,14.7194593421753,0
                -17.2490376792938,14.7195072542109,0
                -17.2489531454284,14.7192919217865,0
                -17.2492610338861,14.7192135116282,0
                -17.2491649734042,14.7187416405316,0
                -17.2491275460089,14.7187109829944,0
                -17.2490803448142,14.7186044195826,0
                -17.2490742165405,14.7185199064787,0
                -17.2490633409458,14.7183910416072,0
                -17.2490390821954,14.7183567739333,0
                -17.2487583524187,14.718430755541,0
                -17.2485572680509,14.7183103658661,0
                -17.2485230593852,14.7181533628114,0
                -17.2484662352406,14.7176657148417,0
                -17.2486078034743,14.7176570406973,0
                -17.2486513741636,14.7176566176517,0
                -17.2486870004084,14.7176419976961,0
                -17.2486962239969,14.7176030209122,0
                -17.2486905689079,14.7175507927909,0
                -17.2487178729891,14.7175430003306,0
                -17.2486759114711,14.7173657565901,0
                -17.2487853481114,14.7174144155039,0
                -17.2490941095892,14.7174757362437,0
                -17.2490462256357,14.7171553787648,0
                -17.2490757328668,14.7171364757975,0
                -17.2491011168859,14.7169906554392,0
                -17.2489338510254,14.7169667187139,0
                -17.248923267027,14.7169412595923,0
                -17.2489436811375,14.7168466338763,0
                -17.2491119014842,14.7167358461605,0
                -17.2491412860625,14.7163779798262,0
                -17.2491884706209,14.7162603006771,0
                -17.249065763842,14.7162330797027,0
                -17.2489885144562,14.716073993651,0
                -17.2491636808343,14.7160580159696,0
                -17.24916882999,14.7158951626111,0
                -17.2491569248459,14.7158570975618,0
                -17.2490360998283,14.7158053146553,0
                -17.249018680187,14.7157118857524,0
                -17.2488638377828,14.7156421717045,0
                -17.2487806553951,14.7157315835505,0
                -17.2487900027476,14.7154772462686,0
                -17.2486382433694,14.715486958953,0
                -17.2486374909589,14.7154135396001,0
                -17.2487709603871,14.7154122438275,0
                -17.2487882943751,14.715288635529,0
                -17.2486992318984,14.7152458703039,0
                -17.2485420969869,14.7152867690956,0
                -17.2483240062805,14.7152516406139,0
                -17.2480953570477,14.7152538599179,0
                -17.2480377116229,14.7152937927473,0
                -17.2478724930822,14.7153773233569,0
                -17.2476719823221,14.7150396311573,0
                -17.2475595956006,14.7147900041764,0
                -17.2474026319185,14.7145178760648,0
                -17.2472757243015,14.7142357224135,0
                -17.2470673769365,14.7138371944698,0
                -17.2466556083948,14.7130518250361,0
                -17.2463734832807,14.7126801635634,0
                -17.2462131471261,14.7125495805716,0
                -17.2459009969219,14.7122495535803,0
                -17.2457295987376,14.712169055631,0
                -17.2456367423597,14.7124003882811,0
                -17.2456472055658,14.7125263320203,0
                -17.2456445048742,14.712657404436,0
                -17.2456043830229,14.7128930905488,0
                -17.245631260029,14.7129491998556,0
                -17.2457028705088,14.7136195315287,0
                -17.2456959751776,14.7139874868071,0
                -17.2456308223488,14.7140878489762,0
                -17.2456299619726,14.7143893078108,0
                -17.2457111043171,14.7146613114608,0
                -17.2456295471413,14.7148324458716,0
                -17.2455399225241,14.7149424203887,0
                -17.2453909626035,14.7148427875919,0
                -17.2453311191253,14.7148493129613,0
                -17.2453664691843,14.7147193534511,0
                -17.2451991190164,14.7146925349824,0
                -17.2450473102854,14.7150921995548,0
                -17.2450995483134,14.7151515660984,0
                -17.2450915158969,14.7153369629486,0
                -17.2452282779611,14.7154679936818,0
                -17.2453866399895,14.7155342960854,0
                -17.245179305947,14.7156454450087,0
                -17.24497345213,14.7163531169619,0
                -17.2445753605239,14.7164078642584,0
                -17.2443380471871,14.7165839557089,0
                -17.2444810763318,14.7169897034295,0
                -17.2448065404314,14.7169375358481,0
                -17.2449023466834,14.7170100774144,0
                -17.2447304842907,14.7171867140005,0
                -17.2443798075712,14.7174195034586,0
                -17.244310165528,14.7173658468551,0
                -17.244201932414,14.7174197977645,0
                -17.2439382300347,14.717652546191,0
                -17.243891469627,14.7177349455608,0
                -17.2434749048176,14.7174840319208,0
                -17.2433699314142,14.7178567893995,0
                -17.2435298239446,14.7179667632146,0
                -17.2436718992671,14.718004051881,0
                -17.2437202441916,14.7178971169927,0
                -17.2442028140485,14.7180502132131,0
                -17.2443250368125,14.7181508230592,0
                -17.2443968743807,14.7183165158933,0
                -17.2445050967592,14.7183598379167,0
                -17.2444631871012,14.7184453283595,0
                -17.2443817383719,14.7186753495608,0
                -17.2444044637053,14.718746445478,0
                -17.24383665972,14.7190491672751,0
                -17.2441027662614,14.7198149791101,0
                -17.2439064359942,14.7199401033627,0
                -17.2440904076609,14.7206231536419,0
                -17.2439680405884,14.7211528436015,0
                -17.2438193175841,14.7215427398346,0
                -17.2434301039778,14.722259169076,0
                -17.2436296274502,14.7223133832686,0
                -17.2437185414109,14.7224291483711,0
                -17.2436568180154,14.7224827082526,0
                -17.243658312203,14.7226287595661,0
                -17.2435600975743,14.7227061632178,0
                -17.2434673434508,14.7230010901731,0
                -17.2434387818391,14.7231464966844,0
                -17.2432970565749,14.7231351445779,0
                -17.2430426973972,14.7231376090867,0
                -17.2429780046788,14.7233263143805,0
                -17.2428658676551,14.7236534115218,0
                -17.2425766270746,14.7244064911909,0
                -17.2430587767998,14.725621641234,0
                -17.243190950378,14.7255991977765,0
                -17.2436914684208,14.7255687677614,0
                -17.245417590206,14.7254609720284,0
                -17.2458236275798,14.7257153827807,0
                -17.2457428243483,14.7258964934736,0
                -17.2456987575239,14.725892696067,0
                -17.2456560982647,14.7261131615321,0
                -17.2458990854808,14.7262857375536,0
                -17.2458186729879,14.7264155471643,0
                -17.2458727391635,14.7265073223515,0
                -17.2458397781628,14.7266695439903,0
                -17.2459051839959,14.7268266115504,0
                -17.2459998545092,14.726985980121,0
                -17.2460515475548,14.7271018159184,0
                -17.2461293246707,14.7271918637561,0
                -17.2460700997254,14.7274021671215,0
                -17.2459790987293,14.7274971624449,0
                -17.2459593474196,14.7275651174585,0
                -17.24649165399,14.7276271437422,0
                -17.2466707129964,14.7275317750739,0
                -17.2468457226569,14.7273998488157,0
                -17.2469667658055,14.7273473746554,0
                -17.2469717611351,14.727434397108,0
                -17.2471027375895,14.7275015439051,0
                -17.2472712219276,14.7274999080779,0
                -17.2473656573974,14.7274235803317,0
                -17.2474910993879,14.7273641674233,0
                -17.2475506576844,14.7272635840708,0
                -17.2477247797881,14.7272591392184,0
                -17.247725975347,14.7273757495157,0
                -17.2479314507035,14.7273349182704,0
                -17.2484903537243,14.7273614700087,0
                -17.2485823108186,14.7274534102646,0
                -17.248693774372,14.7277157174457,0
                -17.2488776720655,14.7276815471174,0
                -17.2489655004482,14.7278037532121,0
              </coordinates>
            </LinearRing>
          </innerBoundaryIs>
        </Polygon>
      </Placemark>
    </Document>
  </Document>
</kml>
