<?xml version="1.0" encoding="utf-8" ?>
<kml xmlns="http://www.opengis.net/kml/2.2">
<Document id="root_doc">
<Schema name="points_alimentation" id="points_alimentation">
	<SimpleField name="ORIG_FID" type="float"></SimpleField>
</Schema>
<Folder><name>points_alimentation</name>
  <Placemark id="points_alimentation.1">
	<ExtendedData><SchemaData schemaUrl="#points_alimentation">
		<SimpleData name="ORIG_FID">0</SimpleData>
	</SchemaData></ExtendedData>
      <Point><coordinates>-17.247611470491,14.7166640574198,0</coordinates></Point>
  </Placemark>
  <Placemark id="points_alimentation.2">
	<ExtendedData><SchemaData schemaUrl="#points_alimentation">
		<SimpleData name="ORIG_FID">1</SimpleData>
	</SchemaData></ExtendedData>
      <Point><coordinates>-17.246095462069,14.713292521314,0</coordinates></Point>
  </Placemark>
  <Placemark id="points_alimentation.3">
	<ExtendedData><SchemaData schemaUrl="#points_alimentation">
		<SimpleData name="ORIG_FID">2</SimpleData>
	</SchemaData></ExtendedData>
      <Point><coordinates>-17.2468175349596,14.715626231666,0</coordinates></Point>
  </Placemark>
  <Placemark id="points_alimentation.4">
	<ExtendedData><SchemaData schemaUrl="#points_alimentation">
		<SimpleData name="ORIG_FID">3</SimpleData>
	</SchemaData></ExtendedData>
      <Point><coordinates>-17.2486668796237,14.7158390766662,0</coordinates></Point>
  </Placemark>
  <Placemark id="points_alimentation.5">
	<ExtendedData><SchemaData schemaUrl="#points_alimentation">
		<SimpleData name="ORIG_FID">4</SimpleData>
	</SchemaData></ExtendedData>
      <Point><coordinates>-17.2478618609011,14.7156824175555,0</coordinates></Point>
  </Placemark>
  <Placemark id="points_alimentation.6">
	<ExtendedData><SchemaData schemaUrl="#points_alimentation">
		<SimpleData name="ORIG_FID">5</SimpleData>
	</SchemaData></ExtendedData>
      <Point><coordinates>-17.2480913486109,14.7167307042588,0</coordinates></Point>
  </Placemark>
  <Placemark id="points_alimentation.7">
	<ExtendedData><SchemaData schemaUrl="#points_alimentation">
		<SimpleData name="ORIG_FID">6</SimpleData>
	</SchemaData></ExtendedData>
      <Point><coordinates>-17.2473695679213,14.7169277524244,0</coordinates></Point>
  </Placemark>
  <Placemark id="points_alimentation.8">
	<ExtendedData><SchemaData schemaUrl="#points_alimentation">
		<SimpleData name="ORIG_FID">7</SimpleData>
	</SchemaData></ExtendedData>
      <Point><coordinates>-17.2466520446695,14.7179739253719,0</coordinates></Point>
  </Placemark>
  <Placemark id="points_alimentation.9">
	<ExtendedData><SchemaData schemaUrl="#points_alimentation">
		<SimpleData name="ORIG_FID">8</SimpleData>
	</SchemaData></ExtendedData>
      <Point><coordinates>-17.2480552380127,14.7220247894823,0</coordinates></Point>
  </Placemark>
  <Placemark id="points_alimentation.10">
	<ExtendedData><SchemaData schemaUrl="#points_alimentation">
		<SimpleData name="ORIG_FID">9</SimpleData>
	</SchemaData></ExtendedData>
      <Point><coordinates>-17.243990900981,14.7231842246764,0</coordinates></Point>
  </Placemark>
  <Placemark id="points_alimentation.11">
	<ExtendedData><SchemaData schemaUrl="#points_alimentation">
		<SimpleData name="ORIG_FID">10</SimpleData>
	</SchemaData></ExtendedData>
      <Point><coordinates>-17.2475857980928,14.7204589770754,0</coordinates></Point>
  </Placemark>
  <Placemark id="points_alimentation.12">
	<ExtendedData><SchemaData schemaUrl="#points_alimentation">
		<SimpleData name="ORIG_FID">11</SimpleData>
	</SchemaData></ExtendedData>
      <Point><coordinates>-17.2474113394395,14.7182342765747,0</coordinates></Point>
  </Placemark>
  <Placemark id="points_alimentation.13">
	<ExtendedData><SchemaData schemaUrl="#points_alimentation">
		<SimpleData name="ORIG_FID">12</SimpleData>
	</SchemaData></ExtendedData>
      <Point><coordinates>-17.2469229612402,14.7173948657439,0</coordinates></Point>
  </Placemark>
  <Placemark id="points_alimentation.14">
	<ExtendedData><SchemaData schemaUrl="#points_alimentation">
		<SimpleData name="ORIG_FID">13</SimpleData>
	</SchemaData></ExtendedData>
      <Point><coordinates>-17.2466659832966,14.714213292191,0</coordinates></Point>
  </Placemark>
  <Placemark id="points_alimentation.15">
	<ExtendedData><SchemaData schemaUrl="#points_alimentation">
		<SimpleData name="ORIG_FID">14</SimpleData>
	</SchemaData></ExtendedData>
      <Point><coordinates>-17.2464040857638,14.7140675645897,0</coordinates></Point>
  </Placemark>
  <Placemark id="points_alimentation.16">
	<ExtendedData><SchemaData schemaUrl="#points_alimentation">
		<SimpleData name="ORIG_FID">15</SimpleData>
	</SchemaData></ExtendedData>
      <Point><coordinates>-17.2456227900641,14.7201941254814,0</coordinates></Point>
  </Placemark>
  <Placemark id="points_alimentation.17">
	<ExtendedData><SchemaData schemaUrl="#points_alimentation">
		<SimpleData name="ORIG_FID">16</SimpleData>
	</SchemaData></ExtendedData>
      <Point><coordinates>-17.2456245700708,14.723307721284,0</coordinates></Point>
  </Placemark>
  <Placemark id="points_alimentation.18">
	<ExtendedData><SchemaData schemaUrl="#points_alimentation">
		<SimpleData name="ORIG_FID">17</SimpleData>
	</SchemaData></ExtendedData>
      <Point><coordinates>-17.2468333135408,14.7241727967735,0</coordinates></Point>
  </Placemark>
  <Placemark id="points_alimentation.19">
	<ExtendedData><SchemaData schemaUrl="#points_alimentation">
		<SimpleData name="ORIG_FID">18</SimpleData>
	</SchemaData></ExtendedData>
      <Point><coordinates>-17.2477024228343,14.7249991835422,0</coordinates></Point>
  </Placemark>
  <Placemark id="points_alimentation.20">
	<ExtendedData><SchemaData schemaUrl="#points_alimentation">
		<SimpleData name="ORIG_FID">19</SimpleData>
	</SchemaData></ExtendedData>
      <Point><coordinates>-17.2458961849458,14.7259152067869,0</coordinates></Point>
  </Placemark>
  <Placemark id="points_alimentation.21">
	<ExtendedData><SchemaData schemaUrl="#points_alimentation">
		<SimpleData name="ORIG_FID">20</SimpleData>
	</SchemaData></ExtendedData>
      <Point><coordinates>-17.2463981154348,14.7268121602217,0</coordinates></Point>
  </Placemark>
  <Placemark id="points_alimentation.22">
	<ExtendedData><SchemaData schemaUrl="#points_alimentation">
		<SimpleData name="ORIG_FID">21</SimpleData>
	</SchemaData></ExtendedData>
      <Point><coordinates>-17.2467749653719,14.727366490485,0</coordinates></Point>
  </Placemark>
  <Placemark id="points_alimentation.23">
	<ExtendedData><SchemaData schemaUrl="#points_alimentation">
		<SimpleData name="ORIG_FID">22</SimpleData>
	</SchemaData></ExtendedData>
      <Point><coordinates>-17.2474740343923,14.7273210989971,0</coordinates></Point>
  </Placemark>
  <Placemark id="points_alimentation.24">
	<ExtendedData><SchemaData schemaUrl="#points_alimentation">
		<SimpleData name="ORIG_FID">23</SimpleData>
	</SchemaData></ExtendedData>
      <Point><coordinates>-17.2479874272794,14.7261579728332,0</coordinates></Point>
  </Placemark>
  <Placemark id="points_alimentation.25">
	<ExtendedData><SchemaData schemaUrl="#points_alimentation">
		<SimpleData name="ORIG_FID">24</SimpleData>
	</SchemaData></ExtendedData>
      <Point><coordinates>-17.2473005324069,14.7243939629026,0</coordinates></Point>
  </Placemark>
  <Placemark id="points_alimentation.26">
	<ExtendedData><SchemaData schemaUrl="#points_alimentation">
		<SimpleData name="ORIG_FID">25</SimpleData>
	</SchemaData></ExtendedData>
      <Point><coordinates>-17.2430646824251,14.7250219859119,0</coordinates></Point>
  </Placemark>
  <Placemark id="points_alimentation.27">
	<ExtendedData><SchemaData schemaUrl="#points_alimentation">
		<SimpleData name="ORIG_FID">26</SimpleData>
	</SchemaData></ExtendedData>
      <Point><coordinates>-17.2496169743472,14.7268679977386,0</coordinates></Point>
  </Placemark>
  <Placemark id="points_alimentation.28">
	<ExtendedData><SchemaData schemaUrl="#points_alimentation">
		<SimpleData name="ORIG_FID">27</SimpleData>
	</SchemaData></ExtendedData>
      <Point><coordinates>-17.2492667998088,14.7273989714911,0</coordinates></Point>
  </Placemark>
  <Placemark id="points_alimentation.29">
	<ExtendedData><SchemaData schemaUrl="#points_alimentation">
		<SimpleData name="ORIG_FID">28</SimpleData>
	</SchemaData></ExtendedData>
      <Point><coordinates>-17.2490491785001,14.7276549629583,0</coordinates></Point>
  </Placemark>
  <Placemark id="points_alimentation.30">
	<ExtendedData><SchemaData schemaUrl="#points_alimentation">
		<SimpleData name="ORIG_FID">29</SimpleData>
	</SchemaData></ExtendedData>
      <Point><coordinates>-17.2498361848502,14.724723189011,0</coordinates></Point>
  </Placemark>
  <Placemark id="points_alimentation.31">
	<ExtendedData><SchemaData schemaUrl="#points_alimentation">
		<SimpleData name="ORIG_FID">30</SimpleData>
	</SchemaData></ExtendedData>
      <Point><coordinates>-17.2494344922504,14.7271695347785,0</coordinates></Point>
  </Placemark>
  <Placemark id="points_alimentation.32">
	<ExtendedData><SchemaData schemaUrl="#points_alimentation">
		<SimpleData name="ORIG_FID">31</SimpleData>
	</SchemaData></ExtendedData>
      <Point><coordinates>-17.2483873638884,14.7259693698751,0</coordinates></Point>
  </Placemark>
  <Placemark id="points_alimentation.33">
	<ExtendedData><SchemaData schemaUrl="#points_alimentation">
		<SimpleData name="ORIG_FID">32</SimpleData>
	</SchemaData></ExtendedData>
      <Point><coordinates>-17.248575895092,14.7257147242583,0</coordinates></Point>
  </Placemark>
  <Placemark id="points_alimentation.34">
	<ExtendedData><SchemaData schemaUrl="#points_alimentation">
		<SimpleData name="ORIG_FID">33</SimpleData>
	</SchemaData></ExtendedData>
      <Point><coordinates>-17.248730017419,14.7240059315939,0</coordinates></Point>
  </Placemark>
  <Placemark id="points_alimentation.35">
	<ExtendedData><SchemaData schemaUrl="#points_alimentation">
		<SimpleData name="ORIG_FID">34</SimpleData>
	</SchemaData></ExtendedData>
      <Point><coordinates>-17.2492938096417,14.7250024029656,0</coordinates></Point>
  </Placemark>
  <Placemark id="points_alimentation.36">
	<ExtendedData><SchemaData schemaUrl="#points_alimentation">
		<SimpleData name="ORIG_FID">35</SimpleData>
	</SchemaData></ExtendedData>
      <Point><coordinates>-17.249808042833,14.7251776164131,0</coordinates></Point>
  </Placemark>
  <Placemark id="points_alimentation.37">
	<ExtendedData><SchemaData schemaUrl="#points_alimentation">
		<SimpleData name="ORIG_FID">36</SimpleData>
	</SchemaData></ExtendedData>
      <Point><coordinates>-17.2494205332667,14.7244882987382,0</coordinates></Point>
  </Placemark>
  <Placemark id="points_alimentation.38">
	<ExtendedData><SchemaData schemaUrl="#points_alimentation">
		<SimpleData name="ORIG_FID">37</SimpleData>
	</SchemaData></ExtendedData>
      <Point><coordinates>-17.2497574492443,14.7245783886362,0</coordinates></Point>
  </Placemark>
  <Placemark id="points_alimentation.39">
	<ExtendedData><SchemaData schemaUrl="#points_alimentation">
		<SimpleData name="ORIG_FID">38</SimpleData>
	</SchemaData></ExtendedData>
      <Point><coordinates>-17.2504659401409,14.7243589992514,0</coordinates></Point>
  </Placemark>
  <Placemark id="points_alimentation.40">
	<ExtendedData><SchemaData schemaUrl="#points_alimentation">
		<SimpleData name="ORIG_FID">39</SimpleData>
	</SchemaData></ExtendedData>
      <Point><coordinates>-17.250657579507,14.7238345416567,0</coordinates></Point>
  </Placemark>
  <Placemark id="points_alimentation.41">
	<ExtendedData><SchemaData schemaUrl="#points_alimentation">
		<SimpleData name="ORIG_FID">40</SimpleData>
	</SchemaData></ExtendedData>
      <Point><coordinates>-17.2506830208149,14.7234852694089,0</coordinates></Point>
  </Placemark>
  <Placemark id="points_alimentation.42">
	<ExtendedData><SchemaData schemaUrl="#points_alimentation">
		<SimpleData name="ORIG_FID">41</SimpleData>
	</SchemaData></ExtendedData>
      <Point><coordinates>-17.2503457636593,14.7235392776868,0</coordinates></Point>
  </Placemark>
  <Placemark id="points_alimentation.43">
	<ExtendedData><SchemaData schemaUrl="#points_alimentation">
		<SimpleData name="ORIG_FID">42</SimpleData>
	</SchemaData></ExtendedData>
      <Point><coordinates>-17.250195917332,14.7236695383054,0</coordinates></Point>
  </Placemark>
  <Placemark id="points_alimentation.44">
	<ExtendedData><SchemaData schemaUrl="#points_alimentation">
		<SimpleData name="ORIG_FID">43</SimpleData>
	</SchemaData></ExtendedData>
      <Point><coordinates>-17.2472316404706,14.7249736204755,0</coordinates></Point>
  </Placemark>
  <Placemark id="points_alimentation.45">
	<ExtendedData><SchemaData schemaUrl="#points_alimentation">
		<SimpleData name="ORIG_FID">44</SimpleData>
	</SchemaData></ExtendedData>
      <Point><coordinates>-17.2501580518098,14.7223285964726,0</coordinates></Point>
  </Placemark>
  <Placemark id="points_alimentation.46">
	<ExtendedData><SchemaData schemaUrl="#points_alimentation">
		<SimpleData name="ORIG_FID">45</SimpleData>
	</SchemaData></ExtendedData>
      <Point><coordinates>-17.2442865384637,14.7221443030798,0</coordinates></Point>
  </Placemark>
  <Placemark id="points_alimentation.47">
	<ExtendedData><SchemaData schemaUrl="#points_alimentation">
		<SimpleData name="ORIG_FID">46</SimpleData>
	</SchemaData></ExtendedData>
      <Point><coordinates>-17.2460361931639,14.723133780421,0</coordinates></Point>
  </Placemark>
  <Placemark id="points_alimentation.48">
	<ExtendedData><SchemaData schemaUrl="#points_alimentation">
		<SimpleData name="ORIG_FID">47</SimpleData>
	</SchemaData></ExtendedData>
      <Point><coordinates>-17.2459248283182,14.7236183798123,0</coordinates></Point>
  </Placemark>
  <Placemark id="points_alimentation.49">
	<ExtendedData><SchemaData schemaUrl="#points_alimentation">
		<SimpleData name="ORIG_FID">48</SimpleData>
	</SchemaData></ExtendedData>
      <Point><coordinates>-17.2456885904339,14.7239450968867,0</coordinates></Point>
  </Placemark>
  <Placemark id="points_alimentation.50">
	<ExtendedData><SchemaData schemaUrl="#points_alimentation">
		<SimpleData name="ORIG_FID">49</SimpleData>
	</SchemaData></ExtendedData>
      <Point><coordinates>-17.2471611319526,14.7236208104193,0</coordinates></Point>
  </Placemark>
  <Placemark id="points_alimentation.51">
	<ExtendedData><SchemaData schemaUrl="#points_alimentation">
		<SimpleData name="ORIG_FID">50</SimpleData>
	</SchemaData></ExtendedData>
      <Point><coordinates>-17.2490042406071,14.7226049647297,0</coordinates></Point>
  </Placemark>
  <Placemark id="points_alimentation.52">
	<ExtendedData><SchemaData schemaUrl="#points_alimentation">
		<SimpleData name="ORIG_FID">51</SimpleData>
	</SchemaData></ExtendedData>
      <Point><coordinates>-17.2504970200159,14.7230908629018,0</coordinates></Point>
  </Placemark>
  <Placemark id="points_alimentation.53">
	<ExtendedData><SchemaData schemaUrl="#points_alimentation">
		<SimpleData name="ORIG_FID">52</SimpleData>
	</SchemaData></ExtendedData>
      <Point><coordinates>-17.245824298252,14.7249058327205,0</coordinates></Point>
  </Placemark>
  <Placemark id="points_alimentation.54">
	<ExtendedData><SchemaData schemaUrl="#points_alimentation">
		<SimpleData name="ORIG_FID">53</SimpleData>
	</SchemaData></ExtendedData>
      <Point><coordinates>-17.2455515443807,14.7244458448708,0</coordinates></Point>
  </Placemark>
  <Placemark id="points_alimentation.55">
	<ExtendedData><SchemaData schemaUrl="#points_alimentation">
		<SimpleData name="ORIG_FID">54</SimpleData>
	</SchemaData></ExtendedData>
      <Point><coordinates>-17.2440755823118,14.7234320897101,0</coordinates></Point>
  </Placemark>
  <Placemark id="points_alimentation.56">
	<ExtendedData><SchemaData schemaUrl="#points_alimentation">
		<SimpleData name="ORIG_FID">55</SimpleData>
	</SchemaData></ExtendedData>
      <Point><coordinates>-17.2434257024705,14.7233571520866,0</coordinates></Point>
  </Placemark>
  <Placemark id="points_alimentation.57">
	<ExtendedData><SchemaData schemaUrl="#points_alimentation">
		<SimpleData name="ORIG_FID">56</SimpleData>
	</SchemaData></ExtendedData>
      <Point><coordinates>-17.2472045574805,14.7232472569406,0</coordinates></Point>
  </Placemark>
  <Placemark id="points_alimentation.58">
	<ExtendedData><SchemaData schemaUrl="#points_alimentation">
		<SimpleData name="ORIG_FID">57</SimpleData>
	</SchemaData></ExtendedData>
      <Point><coordinates>-17.2443172850968,14.7214975064585,0</coordinates></Point>
  </Placemark>
  <Placemark id="points_alimentation.59">
	<ExtendedData><SchemaData schemaUrl="#points_alimentation">
		<SimpleData name="ORIG_FID">58</SimpleData>
	</SchemaData></ExtendedData>
      <Point><coordinates>-17.2450905764254,14.7225040176402,0</coordinates></Point>
  </Placemark>
  <Placemark id="points_alimentation.60">
	<ExtendedData><SchemaData schemaUrl="#points_alimentation">
		<SimpleData name="ORIG_FID">59</SimpleData>
	</SchemaData></ExtendedData>
      <Point><coordinates>-17.2453005749326,14.7229829515284,0</coordinates></Point>
  </Placemark>
  <Placemark id="points_alimentation.61">
	<ExtendedData><SchemaData schemaUrl="#points_alimentation">
		<SimpleData name="ORIG_FID">60</SimpleData>
	</SchemaData></ExtendedData>
      <Point><coordinates>-17.2456255351458,14.7223400439177,0</coordinates></Point>
  </Placemark>
  <Placemark id="points_alimentation.62">
	<ExtendedData><SchemaData schemaUrl="#points_alimentation">
		<SimpleData name="ORIG_FID">61</SimpleData>
	</SchemaData></ExtendedData>
      <Point><coordinates>-17.2472153951492,14.7253168558085,0</coordinates></Point>
  </Placemark>
  <Placemark id="points_alimentation.63">
	<ExtendedData><SchemaData schemaUrl="#points_alimentation">
		<SimpleData name="ORIG_FID">62</SimpleData>
	</SchemaData></ExtendedData>
      <Point><coordinates>-17.2471262302269,14.7227231464485,0</coordinates></Point>
  </Placemark>
  <Placemark id="points_alimentation.64">
	<ExtendedData><SchemaData schemaUrl="#points_alimentation">
		<SimpleData name="ORIG_FID">63</SimpleData>
	</SchemaData></ExtendedData>
      <Point><coordinates>-17.2482803753045,14.7225432245025,0</coordinates></Point>
  </Placemark>
  <Placemark id="points_alimentation.65">
	<ExtendedData><SchemaData schemaUrl="#points_alimentation">
		<SimpleData name="ORIG_FID">64</SimpleData>
	</SchemaData></ExtendedData>
      <Point><coordinates>-17.2476992173272,14.7225213112951,0</coordinates></Point>
  </Placemark>
  <Placemark id="points_alimentation.66">
	<ExtendedData><SchemaData schemaUrl="#points_alimentation">
		<SimpleData name="ORIG_FID">65</SimpleData>
	</SchemaData></ExtendedData>
      <Point><coordinates>-17.2465714122478,14.7257823862375,0</coordinates></Point>
  </Placemark>
  <Placemark id="points_alimentation.67">
	<ExtendedData><SchemaData schemaUrl="#points_alimentation">
		<SimpleData name="ORIG_FID">66</SimpleData>
	</SchemaData></ExtendedData>
      <Point><coordinates>-17.2497420542455,14.7239524915653,0</coordinates></Point>
  </Placemark>
  <Placemark id="points_alimentation.68">
	<ExtendedData><SchemaData schemaUrl="#points_alimentation">
		<SimpleData name="ORIG_FID">67</SimpleData>
	</SchemaData></ExtendedData>
      <Point><coordinates>-17.248734002281,14.7241543417417,0</coordinates></Point>
  </Placemark>
  <Placemark id="points_alimentation.69">
	<ExtendedData><SchemaData schemaUrl="#points_alimentation">
		<SimpleData name="ORIG_FID">68</SimpleData>
	</SchemaData></ExtendedData>
      <Point><coordinates>-17.2488717678583,14.7252861643743,0</coordinates></Point>
  </Placemark>
  <Placemark id="points_alimentation.70">
	<ExtendedData><SchemaData schemaUrl="#points_alimentation">
		<SimpleData name="ORIG_FID">69</SimpleData>
	</SchemaData></ExtendedData>
      <Point><coordinates>-17.2489508237284,14.7213186413205,0</coordinates></Point>
  </Placemark>
  <Placemark id="points_alimentation.71">
	<ExtendedData><SchemaData schemaUrl="#points_alimentation">
		<SimpleData name="ORIG_FID">70</SimpleData>
	</SchemaData></ExtendedData>
      <Point><coordinates>-17.2488007182471,14.719712155045,0</coordinates></Point>
  </Placemark>
  <Placemark id="points_alimentation.72">
	<ExtendedData><SchemaData schemaUrl="#points_alimentation">
		<SimpleData name="ORIG_FID">71</SimpleData>
	</SchemaData></ExtendedData>
      <Point><coordinates>-17.2484163157637,14.7187180196175,0</coordinates></Point>
  </Placemark>
  <Placemark id="points_alimentation.73">
	<ExtendedData><SchemaData schemaUrl="#points_alimentation">
		<SimpleData name="ORIG_FID">72</SimpleData>
	</SchemaData></ExtendedData>
      <Point><coordinates>-17.2476968289341,14.7174057669163,0</coordinates></Point>
  </Placemark>
  <Placemark id="points_alimentation.74">
	<ExtendedData><SchemaData schemaUrl="#points_alimentation">
		<SimpleData name="ORIG_FID">73</SimpleData>
	</SchemaData></ExtendedData>
      <Point><coordinates>-17.2463286944294,14.7153592707592,0</coordinates></Point>
  </Placemark>
  <Placemark id="points_alimentation.75">
	<ExtendedData><SchemaData schemaUrl="#points_alimentation">
		<SimpleData name="ORIG_FID">74</SimpleData>
	</SchemaData></ExtendedData>
      <Point><coordinates>-17.2471033706994,14.7148891454386,0</coordinates></Point>
  </Placemark>
  <Placemark id="points_alimentation.76">
	<ExtendedData><SchemaData schemaUrl="#points_alimentation">
		<SimpleData name="ORIG_FID">75</SimpleData>
	</SchemaData></ExtendedData>
      <Point><coordinates>-17.248577738838,14.720017427295,0</coordinates></Point>
  </Placemark>
  <Placemark id="points_alimentation.77">
	<ExtendedData><SchemaData schemaUrl="#points_alimentation">
		<SimpleData name="ORIG_FID">76</SimpleData>
	</SchemaData></ExtendedData>
      <Point><coordinates>-17.2489432065516,14.720253246018,0</coordinates></Point>
  </Placemark>
  <Placemark id="points_alimentation.78">
	<ExtendedData><SchemaData schemaUrl="#points_alimentation">
		<SimpleData name="ORIG_FID">77</SimpleData>
	</SchemaData></ExtendedData>
      <Point><coordinates>-17.2495134908751,14.7203259317927,0</coordinates></Point>
  </Placemark>
  <Placemark id="points_alimentation.79">
	<ExtendedData><SchemaData schemaUrl="#points_alimentation">
		<SimpleData name="ORIG_FID">78</SimpleData>
	</SchemaData></ExtendedData>
      <Point><coordinates>-17.248861799183,14.7210444267934,0</coordinates></Point>
  </Placemark>
  <Placemark id="points_alimentation.80">
	<ExtendedData><SchemaData schemaUrl="#points_alimentation">
		<SimpleData name="ORIG_FID">79</SimpleData>
	</SchemaData></ExtendedData>
      <Point><coordinates>-17.2474664714822,14.7217222002761,0</coordinates></Point>
  </Placemark>
  <Placemark id="points_alimentation.81">
	<ExtendedData><SchemaData schemaUrl="#points_alimentation">
		<SimpleData name="ORIG_FID">80</SimpleData>
	</SchemaData></ExtendedData>
      <Point><coordinates>-17.2485456616941,14.7212760713849,0</coordinates></Point>
  </Placemark>
  <Placemark id="points_alimentation.82">
	<ExtendedData><SchemaData schemaUrl="#points_alimentation">
		<SimpleData name="ORIG_FID">81</SimpleData>
	</SchemaData></ExtendedData>
      <Point><coordinates>-17.2490394563378,14.7204241859899,0</coordinates></Point>
  </Placemark>
  <Placemark id="points_alimentation.83">
	<ExtendedData><SchemaData schemaUrl="#points_alimentation">
		<SimpleData name="ORIG_FID">82</SimpleData>
	</SchemaData></ExtendedData>
      <Point><coordinates>-17.2484876812062,14.7202514417155,0</coordinates></Point>
  </Placemark>
  <Placemark id="points_alimentation.84">
	<ExtendedData><SchemaData schemaUrl="#points_alimentation">
		<SimpleData name="ORIG_FID">83</SimpleData>
	</SchemaData></ExtendedData>
      <Point><coordinates>-17.2477731132341,14.7205096252764,0</coordinates></Point>
  </Placemark>
  <Placemark id="points_alimentation.85">
	<ExtendedData><SchemaData schemaUrl="#points_alimentation">
		<SimpleData name="ORIG_FID">84</SimpleData>
	</SchemaData></ExtendedData>
      <Point><coordinates>-17.2486210227216,14.7204507297286,0</coordinates></Point>
  </Placemark>
  <Placemark id="points_alimentation.86">
	<ExtendedData><SchemaData schemaUrl="#points_alimentation">
		<SimpleData name="ORIG_FID">85</SimpleData>
	</SchemaData></ExtendedData>
      <Point><coordinates>-17.2477696939916,14.7198080708147,0</coordinates></Point>
  </Placemark>
  <Placemark id="points_alimentation.87">
	<ExtendedData><SchemaData schemaUrl="#points_alimentation">
		<SimpleData name="ORIG_FID">86</SimpleData>
	</SchemaData></ExtendedData>
      <Point><coordinates>-17.2473570736423,14.7200747505894,0</coordinates></Point>
  </Placemark>
  <Placemark id="points_alimentation.88">
	<ExtendedData><SchemaData schemaUrl="#points_alimentation">
		<SimpleData name="ORIG_FID">87</SimpleData>
	</SchemaData></ExtendedData>
      <Point><coordinates>-17.2479223548636,14.7201074172094,0</coordinates></Point>
  </Placemark>
  <Placemark id="points_alimentation.89">
	<ExtendedData><SchemaData schemaUrl="#points_alimentation">
		<SimpleData name="ORIG_FID">88</SimpleData>
	</SchemaData></ExtendedData>
      <Point><coordinates>-17.2467921665889,14.7208060055102,0</coordinates></Point>
  </Placemark>
  <Placemark id="points_alimentation.90">
	<ExtendedData><SchemaData schemaUrl="#points_alimentation">
		<SimpleData name="ORIG_FID">89</SimpleData>
	</SchemaData></ExtendedData>
      <Point><coordinates>-17.2463087476085,14.720617406014,0</coordinates></Point>
  </Placemark>
  <Placemark id="points_alimentation.91">
	<ExtendedData><SchemaData schemaUrl="#points_alimentation">
		<SimpleData name="ORIG_FID">90</SimpleData>
	</SchemaData></ExtendedData>
      <Point><coordinates>-17.2463711789392,14.7242611748482,0</coordinates></Point>
  </Placemark>
  <Placemark id="points_alimentation.92">
	<ExtendedData><SchemaData schemaUrl="#points_alimentation">
		<SimpleData name="ORIG_FID">91</SimpleData>
	</SchemaData></ExtendedData>
      <Point><coordinates>-17.2481011670818,14.7194171236041,0</coordinates></Point>
  </Placemark>
  <Placemark id="points_alimentation.93">
	<ExtendedData><SchemaData schemaUrl="#points_alimentation">
		<SimpleData name="ORIG_FID">92</SimpleData>
	</SchemaData></ExtendedData>
      <Point><coordinates>-17.2488672389003,14.7196141215751,0</coordinates></Point>
  </Placemark>
  <Placemark id="points_alimentation.94">
	<ExtendedData><SchemaData schemaUrl="#points_alimentation">
		<SimpleData name="ORIG_FID">93</SimpleData>
	</SchemaData></ExtendedData>
      <Point><coordinates>-17.2486496892778,14.7194123281769,0</coordinates></Point>
  </Placemark>
  <Placemark id="points_alimentation.95">
	<ExtendedData><SchemaData schemaUrl="#points_alimentation">
		<SimpleData name="ORIG_FID">94</SimpleData>
	</SchemaData></ExtendedData>
      <Point><coordinates>-17.2492259597859,14.719518572827,0</coordinates></Point>
  </Placemark>
  <Placemark id="points_alimentation.96">
	<ExtendedData><SchemaData schemaUrl="#points_alimentation">
		<SimpleData name="ORIG_FID">95</SimpleData>
	</SchemaData></ExtendedData>
      <Point><coordinates>-17.2492274747628,14.7196663202858,0</coordinates></Point>
  </Placemark>
  <Placemark id="points_alimentation.97">
	<ExtendedData><SchemaData schemaUrl="#points_alimentation">
		<SimpleData name="ORIG_FID">96</SimpleData>
	</SchemaData></ExtendedData>
      <Point><coordinates>-17.2491100656624,14.7192025733223,0</coordinates></Point>
  </Placemark>
  <Placemark id="points_alimentation.98">
	<ExtendedData><SchemaData schemaUrl="#points_alimentation">
		<SimpleData name="ORIG_FID">97</SimpleData>
	</SchemaData></ExtendedData>
      <Point><coordinates>-17.2483072471615,14.717123024089,0</coordinates></Point>
  </Placemark>
  <Placemark id="points_alimentation.99">
	<ExtendedData><SchemaData schemaUrl="#points_alimentation">
		<SimpleData name="ORIG_FID">98</SimpleData>
	</SchemaData></ExtendedData>
      <Point><coordinates>-17.2486586750452,14.7174439116343,0</coordinates></Point>
  </Placemark>
  <Placemark id="points_alimentation.100">
	<ExtendedData><SchemaData schemaUrl="#points_alimentation">
		<SimpleData name="ORIG_FID">99</SimpleData>
	</SchemaData></ExtendedData>
      <Point><coordinates>-17.2483915033608,14.7181132581929,0</coordinates></Point>
  </Placemark>
  <Placemark id="points_alimentation.101">
	<ExtendedData><SchemaData schemaUrl="#points_alimentation">
		<SimpleData name="ORIG_FID">100</SimpleData>
	</SchemaData></ExtendedData>
      <Point><coordinates>-17.248277180233,14.7178146430033,0</coordinates></Point>
  </Placemark>
  <Placemark id="points_alimentation.102">
	<ExtendedData><SchemaData schemaUrl="#points_alimentation">
		<SimpleData name="ORIG_FID">101</SimpleData>
	</SchemaData></ExtendedData>
      <Point><coordinates>-17.2483105315554,14.7174435166709,0</coordinates></Point>
  </Placemark>
  <Placemark id="points_alimentation.103">
	<ExtendedData><SchemaData schemaUrl="#points_alimentation">
		<SimpleData name="ORIG_FID">102</SimpleData>
	</SchemaData></ExtendedData>
      <Point><coordinates>-17.2451797224509,14.718258929498,0</coordinates></Point>
  </Placemark>
  <Placemark id="points_alimentation.104">
	<ExtendedData><SchemaData schemaUrl="#points_alimentation">
		<SimpleData name="ORIG_FID">103</SimpleData>
	</SchemaData></ExtendedData>
      <Point><coordinates>-17.2450760348668,14.718996972025,0</coordinates></Point>
  </Placemark>
  <Placemark id="points_alimentation.105">
	<ExtendedData><SchemaData schemaUrl="#points_alimentation">
		<SimpleData name="ORIG_FID">104</SimpleData>
	</SchemaData></ExtendedData>
      <Point><coordinates>-17.2480940046881,14.7186141521528,0</coordinates></Point>
  </Placemark>
  <Placemark id="points_alimentation.106">
	<ExtendedData><SchemaData schemaUrl="#points_alimentation">
		<SimpleData name="ORIG_FID">105</SimpleData>
	</SchemaData></ExtendedData>
      <Point><coordinates>-17.2476231975211,14.7185065256397,0</coordinates></Point>
  </Placemark>
  <Placemark id="points_alimentation.107">
	<ExtendedData><SchemaData schemaUrl="#points_alimentation">
		<SimpleData name="ORIG_FID">106</SimpleData>
	</SchemaData></ExtendedData>
      <Point><coordinates>-17.2472172216366,14.7183960508288,0</coordinates></Point>
  </Placemark>
  <Placemark id="points_alimentation.108">
	<ExtendedData><SchemaData schemaUrl="#points_alimentation">
		<SimpleData name="ORIG_FID">107</SimpleData>
	</SchemaData></ExtendedData>
      <Point><coordinates>-17.2469760918286,14.7179176021573,0</coordinates></Point>
  </Placemark>
  <Placemark id="points_alimentation.109">
	<ExtendedData><SchemaData schemaUrl="#points_alimentation">
		<SimpleData name="ORIG_FID">108</SimpleData>
	</SchemaData></ExtendedData>
      <Point><coordinates>-17.2472741878729,14.7178193885396,0</coordinates></Point>
  </Placemark>
  <Placemark id="points_alimentation.110">
	<ExtendedData><SchemaData schemaUrl="#points_alimentation">
		<SimpleData name="ORIG_FID">109</SimpleData>
	</SchemaData></ExtendedData>
      <Point><coordinates>-17.2453750253446,14.7185298651095,0</coordinates></Point>
  </Placemark>
  <Placemark id="points_alimentation.111">
	<ExtendedData><SchemaData schemaUrl="#points_alimentation">
		<SimpleData name="ORIG_FID">110</SimpleData>
	</SchemaData></ExtendedData>
      <Point><coordinates>-17.2456802892715,14.7181227036761,0</coordinates></Point>
  </Placemark>
  <Placemark id="points_alimentation.112">
	<ExtendedData><SchemaData schemaUrl="#points_alimentation">
		<SimpleData name="ORIG_FID">111</SimpleData>
	</SchemaData></ExtendedData>
      <Point><coordinates>-17.2472582591705,14.7172884576526,0</coordinates></Point>
  </Placemark>
  <Placemark id="points_alimentation.113">
	<ExtendedData><SchemaData schemaUrl="#points_alimentation">
		<SimpleData name="ORIG_FID">112</SimpleData>
	</SchemaData></ExtendedData>
      <Point><coordinates>-17.2478929032229,14.717592705424,0</coordinates></Point>
  </Placemark>
  <Placemark id="points_alimentation.114">
	<ExtendedData><SchemaData schemaUrl="#points_alimentation">
		<SimpleData name="ORIG_FID">113</SimpleData>
	</SchemaData></ExtendedData>
      <Point><coordinates>-17.2475502254538,14.7168873117657,0</coordinates></Point>
  </Placemark>
  <Placemark id="points_alimentation.115">
	<ExtendedData><SchemaData schemaUrl="#points_alimentation">
		<SimpleData name="ORIG_FID">114</SimpleData>
	</SchemaData></ExtendedData>
      <Point><coordinates>-17.2475443205763,14.7162169106369,0</coordinates></Point>
  </Placemark>
  <Placemark id="points_alimentation.116">
	<ExtendedData><SchemaData schemaUrl="#points_alimentation">
		<SimpleData name="ORIG_FID">115</SimpleData>
	</SchemaData></ExtendedData>
      <Point><coordinates>-17.2475203659918,14.7164441951908,0</coordinates></Point>
  </Placemark>
  <Placemark id="points_alimentation.117">
	<ExtendedData><SchemaData schemaUrl="#points_alimentation">
		<SimpleData name="ORIG_FID">116</SimpleData>
	</SchemaData></ExtendedData>
      <Point><coordinates>-17.2487292518998,14.7170445362952,0</coordinates></Point>
  </Placemark>
  <Placemark id="points_alimentation.118">
	<ExtendedData><SchemaData schemaUrl="#points_alimentation">
		<SimpleData name="ORIG_FID">117</SimpleData>
	</SchemaData></ExtendedData>
      <Point><coordinates>-17.2486415463198,14.7168804421767,0</coordinates></Point>
  </Placemark>
  <Placemark id="points_alimentation.119">
	<ExtendedData><SchemaData schemaUrl="#points_alimentation">
		<SimpleData name="ORIG_FID">118</SimpleData>
	</SchemaData></ExtendedData>
      <Point><coordinates>-17.2486001902857,14.7163719431257,0</coordinates></Point>
  </Placemark>
  <Placemark id="points_alimentation.120">
	<ExtendedData><SchemaData schemaUrl="#points_alimentation">
		<SimpleData name="ORIG_FID">119</SimpleData>
	</SchemaData></ExtendedData>
      <Point><coordinates>-17.2472617618263,14.7191802306078,0</coordinates></Point>
  </Placemark>
  <Placemark id="points_alimentation.121">
	<ExtendedData><SchemaData schemaUrl="#points_alimentation">
		<SimpleData name="ORIG_FID">120</SimpleData>
	</SchemaData></ExtendedData>
      <Point><coordinates>-17.2477761359058,14.7169602862531,0</coordinates></Point>
  </Placemark>
  <Placemark id="points_alimentation.122">
	<ExtendedData><SchemaData schemaUrl="#points_alimentation">
		<SimpleData name="ORIG_FID">121</SimpleData>
	</SchemaData></ExtendedData>
      <Point><coordinates>-17.2488853325265,14.7165151261987,0</coordinates></Point>
  </Placemark>
  <Placemark id="points_alimentation.123">
	<ExtendedData><SchemaData schemaUrl="#points_alimentation">
		<SimpleData name="ORIG_FID">122</SimpleData>
	</SchemaData></ExtendedData>
      <Point><coordinates>-17.2488518037503,14.7160052664194,0</coordinates></Point>
  </Placemark>
  <Placemark id="points_alimentation.124">
	<ExtendedData><SchemaData schemaUrl="#points_alimentation">
		<SimpleData name="ORIG_FID">123</SimpleData>
	</SchemaData></ExtendedData>
      <Point><coordinates>-17.247038899235,14.7152479947619,0</coordinates></Point>
  </Placemark>
  <Placemark id="points_alimentation.125">
	<ExtendedData><SchemaData schemaUrl="#points_alimentation">
		<SimpleData name="ORIG_FID">124</SimpleData>
	</SchemaData></ExtendedData>
      <Point><coordinates>-17.247496650653,14.714935643207,0</coordinates></Point>
  </Placemark>
  <Placemark id="points_alimentation.126">
	<ExtendedData><SchemaData schemaUrl="#points_alimentation">
		<SimpleData name="ORIG_FID">125</SimpleData>
	</SchemaData></ExtendedData>
      <Point><coordinates>-17.2473443352641,14.7146090635687,0</coordinates></Point>
  </Placemark>
  <Placemark id="points_alimentation.127">
	<ExtendedData><SchemaData schemaUrl="#points_alimentation">
		<SimpleData name="ORIG_FID">126</SimpleData>
	</SchemaData></ExtendedData>
      <Point><coordinates>-17.2472024440901,14.7143048354956,0</coordinates></Point>
  </Placemark>
  <Placemark id="points_alimentation.128">
	<ExtendedData><SchemaData schemaUrl="#points_alimentation">
		<SimpleData name="ORIG_FID">127</SimpleData>
	</SchemaData></ExtendedData>
      <Point><coordinates>-17.2469651576969,14.7138120503348,0</coordinates></Point>
  </Placemark>
  <Placemark id="points_alimentation.129">
	<ExtendedData><SchemaData schemaUrl="#points_alimentation">
		<SimpleData name="ORIG_FID">128</SimpleData>
	</SchemaData></ExtendedData>
      <Point><coordinates>-17.2464040857638,14.7140675645897,0</coordinates></Point>
  </Placemark>
  <Placemark id="points_alimentation.130">
	<ExtendedData><SchemaData schemaUrl="#points_alimentation">
		<SimpleData name="ORIG_FID">129</SimpleData>
	</SchemaData></ExtendedData>
      <Point><coordinates>-17.2479611495733,14.7164098803372,0</coordinates></Point>
  </Placemark>
  <Placemark id="points_alimentation.131">
	<ExtendedData><SchemaData schemaUrl="#points_alimentation">
		<SimpleData name="ORIG_FID">130</SimpleData>
	</SchemaData></ExtendedData>
      <Point><coordinates>-17.2472118165751,14.7166878331397,0</coordinates></Point>
  </Placemark>
  <Placemark id="points_alimentation.132">
	<ExtendedData><SchemaData schemaUrl="#points_alimentation">
		<SimpleData name="ORIG_FID">131</SimpleData>
	</SchemaData></ExtendedData>
      <Point><coordinates>-17.2479409105505,14.7159807060452,0</coordinates></Point>
  </Placemark>
  <Placemark id="points_alimentation.133">
	<ExtendedData><SchemaData schemaUrl="#points_alimentation">
		<SimpleData name="ORIG_FID">132</SimpleData>
	</SchemaData></ExtendedData>
      <Point><coordinates>-17.2465343163088,14.7163124431772,0</coordinates></Point>
  </Placemark>
  <Placemark id="points_alimentation.134">
	<ExtendedData><SchemaData schemaUrl="#points_alimentation">
		<SimpleData name="ORIG_FID">133</SimpleData>
	</SchemaData></ExtendedData>
      <Point><coordinates>-17.2464395970721,14.717134056189,0</coordinates></Point>
  </Placemark>
  <Placemark id="points_alimentation.135">
	<ExtendedData><SchemaData schemaUrl="#points_alimentation">
		<SimpleData name="ORIG_FID">134</SimpleData>
	</SchemaData></ExtendedData>
      <Point><coordinates>-17.2457053808351,14.7162955642676,0</coordinates></Point>
  </Placemark>
  <Placemark id="points_alimentation.136">
	<ExtendedData><SchemaData schemaUrl="#points_alimentation">
		<SimpleData name="ORIG_FID">135</SimpleData>
	</SchemaData></ExtendedData>
      <Point><coordinates>-17.2455393854178,14.716226992405,0</coordinates></Point>
  </Placemark>
  <Placemark id="points_alimentation.137">
	<ExtendedData><SchemaData schemaUrl="#points_alimentation">
		<SimpleData name="ORIG_FID">136</SimpleData>
	</SchemaData></ExtendedData>
      <Point><coordinates>-17.2456534797996,14.7152304303622,0</coordinates></Point>
  </Placemark>
  <Placemark id="points_alimentation.138">
	<ExtendedData><SchemaData schemaUrl="#points_alimentation">
		<SimpleData name="ORIG_FID">137</SimpleData>
	</SchemaData></ExtendedData>
      <Point><coordinates>-17.2453231673733,14.7151711276811,0</coordinates></Point>
  </Placemark>
  <Placemark id="points_alimentation.139">
	<ExtendedData><SchemaData schemaUrl="#points_alimentation">
		<SimpleData name="ORIG_FID">138</SimpleData>
	</SchemaData></ExtendedData>
      <Point><coordinates>-17.2463144562991,14.7128916456695,0</coordinates></Point>
  </Placemark>
  <Placemark id="points_alimentation.140">
	<ExtendedData><SchemaData schemaUrl="#points_alimentation">
		<SimpleData name="ORIG_FID">139</SimpleData>
	</SchemaData></ExtendedData>
      <Point><coordinates>-17.2459772384282,14.7126663874251,0</coordinates></Point>
  </Placemark>
</Folder>
</Document></kml>
