<?xml version="1.0" encoding="utf-8" ?>
<kml xmlns="http://www.opengis.net/kml/2.2">
<Document id="root_doc">
<Schema name="routes" id="routes">
	<SimpleField name="Shape_Leng" type="float"></SimpleField>
	<SimpleField name="Type" type="string"></SimpleField>
</Schema>
<Folder><name>routes</name>
  <Placemark id="routes.1">
	<Style><LineStyle><color>ff0000ff</color></LineStyle><PolyStyle><fill>0</fill></PolyStyle></Style>
	<ExtendedData><SchemaData schemaUrl="#routes">
		<SimpleData name="Shape_Leng">88.76246516100</SimpleData>
		<SimpleData name="Type">Piste</SimpleData>
	</SchemaData></ExtendedData>
      <MultiGeometry><LineString><coordinates>-17.2444620577231,14.7259988447338,0 -17.2443121048043,14.7264151655652,0 -17.2442442029977,14.726693357795,0 -17.2442664174357,14.7267650358941,0</coordinates></LineString></MultiGeometry>
  </Placemark>
  <Placemark id="routes.2">
	<Style><LineStyle><color>ff0000ff</color></LineStyle><PolyStyle><fill>0</fill></PolyStyle></Style>
	<ExtendedData><SchemaData schemaUrl="#routes">
		<SimpleData name="Shape_Leng">1720.13260462000</SimpleData>
		<SimpleData name="Type">Piste</SimpleData>
	</SchemaData></ExtendedData>
      <MultiGeometry><LineString><coordinates>-17.2437673213416,14.7164920931718,0 -17.2435189847605,14.7172434446643,0 -17.243324422747,14.7173328839134,0 -17.2430055675121,14.7175923817591,0 -17.2425982863917,14.7177564265359,0 -17.2421570330537,14.7177195554347,0 -17.24250293532,14.7184526566111,0 -17.2428932851895,14.7188351613156,0 -17.2436260931195,14.7190803772667,0 -17.243559900057,14.7194655513951,0 -17.2437002608293,14.7200697185778,0 -17.243937519261,14.7209053064322,0 -17.2437127925082,14.7215963354063,0 -17.2433275847266,14.722206526657,0 -17.2431247007586,14.7225279045408,0 -17.2423256927445,14.724615841074,0 -17.2425787589515,14.7251295390334,0 -17.2434709992134,14.7269335963394,0 -17.2443134271887,14.728931013485,0 -17.2444882460462,14.7294264897694,0</coordinates></LineString></MultiGeometry>
  </Placemark>
  <Placemark id="routes.3">
	<Style><LineStyle><color>ff0000ff</color></LineStyle><PolyStyle><fill>0</fill></PolyStyle></Style>
	<ExtendedData><SchemaData schemaUrl="#routes">
		<SimpleData name="Shape_Leng">68.28954749880</SimpleData>
		<SimpleData name="Type">Piste</SimpleData>
	</SchemaData></ExtendedData>
      <MultiGeometry><LineString><coordinates>-17.2489319614653,14.7194811523293,0 -17.2490508452439,14.7194486035196,0 -17.2493081339643,14.7193544599443,0 -17.2495436813699,14.7193521718676,0</coordinates></LineString></MultiGeometry>
  </Placemark>
  <Placemark id="routes.4">
	<Style><LineStyle><color>ff0000ff</color></LineStyle><PolyStyle><fill>0</fill></PolyStyle></Style>
	<ExtendedData><SchemaData schemaUrl="#routes">
		<SimpleData name="Shape_Leng">235.85441601600</SimpleData>
		<SimpleData name="Type">Piste</SimpleData>
	</SchemaData></ExtendedData>
      <MultiGeometry><LineString><coordinates>-17.246114434784,14.7272126459033,0 -17.246038645337,14.7271165286996,0 -17.2458925312294,14.7268640440136,0 -17.2457887596308,14.7266364825966,0 -17.2456907211681,14.7263603582628,0 -17.2456107579004,14.7262675575638,0 -17.2452972641738,14.7262061495027,0 -17.2452160588928,14.7261639297833,0 -17.2452273984646,14.7260913562107,0 -17.2448924471591,14.7259653459414,0 -17.2448569693656,14.7258358509633,0 -17.244755047047,14.7258231264147,0</coordinates></LineString></MultiGeometry>
  </Placemark>
  <Placemark id="routes.5">
	<Style><LineStyle><color>ff0000ff</color></LineStyle><PolyStyle><fill>0</fill></PolyStyle></Style>
	<ExtendedData><SchemaData schemaUrl="#routes">
		<SimpleData name="Shape_Leng">370.71285565400</SimpleData>
		<SimpleData name="Type">Piste</SimpleData>
	</SchemaData></ExtendedData>
      <MultiGeometry><LineString><coordinates>-17.2459616340918,14.7243584693236,0 -17.2460025383397,14.7242386115084,0 -17.2460995310007,14.7240495606815,0 -17.246123189937,14.723896986903,0 -17.2461750972252,14.7238631654025,0 -17.2462259649661,14.7235613662395,0 -17.2463966716854,14.7232612983208,0 -17.2464520380974,14.7231593500751,0 -17.2462669248966,14.7230418352415,0 -17.246436932792,14.7225651862409,0 -17.2468202676009,14.722706033025,0 -17.2468499650918,14.7227034371913,0 -17.2468592177827,14.7227199064869,0 -17.2474207686414,14.7220477873014,0</coordinates></LineString></MultiGeometry>
  </Placemark>
  <Placemark id="routes.6">
	<Style><LineStyle><color>ff0000ff</color></LineStyle><PolyStyle><fill>0</fill></PolyStyle></Style>
	<ExtendedData><SchemaData schemaUrl="#routes">
		<SimpleData name="Shape_Leng">487.25959664500</SimpleData>
		<SimpleData name="Type">Piste</SimpleData>
	</SchemaData></ExtendedData>
      <MultiGeometry><LineString><coordinates>-17.2445758346222,14.7259552662396,0 -17.2446969280542,14.7259088862577,0 -17.244755047047,14.7258231264147,0 -17.2447554369717,14.7256592690527,0 -17.2449835099878,14.7256122671212,0 -17.2449165888223,14.7254994979605,0 -17.2450092995602,14.7253373022754,0 -17.2451033291681,14.725266842443,0 -17.2453182791979,14.7249510309476,0 -17.2457987995013,14.7245012635727,0 -17.2462036629265,14.7242055748746,0 -17.2468883793016,14.7236245474332,0 -17.2472533755964,14.7234436145656,0 -17.2477756683539,14.7232394918025,0</coordinates></LineString></MultiGeometry>
  </Placemark>
  <Placemark id="routes.7">
	<Style><LineStyle><color>ff0000ff</color></LineStyle><PolyStyle><fill>0</fill></PolyStyle></Style>
	<ExtendedData><SchemaData schemaUrl="#routes">
		<SimpleData name="Shape_Leng">257.47849261100</SimpleData>
		<SimpleData name="Type">Piste</SimpleData>
	</SchemaData></ExtendedData>
      <MultiGeometry><LineString><coordinates>-17.2455195996878,14.7208499125059,0 -17.2456048350946,14.7209092171164,0 -17.2461804281845,14.7209036341363,0 -17.2464386021395,14.7209011295067,0 -17.2465898618037,14.7213175200251,0 -17.2468797574617,14.7212390341553,0 -17.247025624542,14.721329397922,0 -17.2471607396268,14.7218221523193,0</coordinates></LineString></MultiGeometry>
  </Placemark>
  <Placemark id="routes.8">
	<Style><LineStyle><color>ff0000ff</color></LineStyle><PolyStyle><fill>0</fill></PolyStyle></Style>
	<ExtendedData><SchemaData schemaUrl="#routes">
		<SimpleData name="Shape_Leng">305.63381256700</SimpleData>
		<SimpleData name="Type">Piste</SimpleData>
	</SchemaData></ExtendedData>
      <MultiGeometry><LineString><coordinates>-17.243937519261,14.7209053064322,0 -17.2441857368922,14.7205137230881,0 -17.2443691002523,14.7203406009686,0 -17.2445809392484,14.7200006275972,0 -17.2449641884722,14.7198409420516,0 -17.2452939617863,14.7201790790332,0 -17.2455729486379,14.7204636746635,0 -17.2455195996878,14.7208499125059,0</coordinates></LineString></MultiGeometry>
  </Placemark>
  <Placemark id="routes.9">
	<Style><LineStyle><color>ff0000ff</color></LineStyle><PolyStyle><fill>0</fill></PolyStyle></Style>
	<ExtendedData><SchemaData schemaUrl="#routes">
		<SimpleData name="Shape_Leng">404.09917272100</SimpleData>
		<SimpleData name="Type">Piste</SimpleData>
	</SchemaData></ExtendedData>
      <MultiGeometry><LineString><coordinates>-17.2508882593722,14.7248044777908,0 -17.2506061085653,14.7247879984357,0 -17.2504013074669,14.724669524097,0 -17.2497785180711,14.7243219218814,0 -17.2496702188156,14.7243559063429,0 -17.249601515902,14.7243835489804,0 -17.2494471842258,14.7242870776011,0 -17.2492690968285,14.7241671616164,0 -17.2491051988477,14.7240600254387,0 -17.2489455560552,14.7240647179503,0 -17.2486874720028,14.7239233145868,0 -17.2484343531438,14.723713281699,0 -17.2483420257937,14.7236023416047,0 -17.2483817225269,14.7235576241627,0 -17.248031354016,14.7232472209403,0 -17.2479425012359,14.72323203331,0 -17.2477756683539,14.7232394918025,0</coordinates></LineString></MultiGeometry>
  </Placemark>
  <Placemark id="routes.10">
	<Style><LineStyle><color>ff0000ff</color></LineStyle><PolyStyle><fill>0</fill></PolyStyle></Style>
	<ExtendedData><SchemaData schemaUrl="#routes">
		<SimpleData name="Shape_Leng">257.17489787100</SimpleData>
		<SimpleData name="Type">Piste</SimpleData>
	</SchemaData></ExtendedData>
      <MultiGeometry><LineString><coordinates>-17.2497418930944,14.7212761684587,0 -17.2496482255881,14.7214327483955,0 -17.2495973147437,14.7214851329935,0 -17.2493899777388,14.7216131659576,0 -17.2491809792103,14.721715446115,0 -17.2489618871162,14.7219029768262,0 -17.2488050173945,14.722040799557,0 -17.2486673802608,14.7220502428678,0 -17.2486018438441,14.7220264848375,0 -17.2482963926054,14.722081332104,0 -17.248053023256,14.7222441738413,0 -17.2478894507279,14.7224106028953,0 -17.2478123996784,14.7224630900873,0</coordinates></LineString></MultiGeometry>
  </Placemark>
  <Placemark id="routes.11">
	<Style><LineStyle><color>ff0000ff</color></LineStyle><PolyStyle><fill>0</fill></PolyStyle></Style>
	<ExtendedData><SchemaData schemaUrl="#routes">
		<SimpleData name="Shape_Leng">949.36504181800</SimpleData>
		<SimpleData name="Type">Piste</SimpleData>
	</SchemaData></ExtendedData>
      <MultiGeometry><LineString><coordinates>-17.2471607396268,14.7218221523193,0 -17.2473225516521,14.7219565457442,0 -17.2475008231783,14.7221221554084,0 -17.2476506987139,14.7223698538411,0 -17.2477224978382,14.7224348248109,0 -17.2478123996784,14.7224630900873,0 -17.2477958573897,14.722507296205,0 -17.247714294618,14.7226420425174,0 -17.2477790001245,14.7231858626771,0 -17.2477510252175,14.7236361189797,0 -17.2478533456744,14.7237502773863,0 -17.2478592682672,14.7241136820503,0 -17.2478228468687,14.7241957396252,0 -17.2477846139628,14.7242218028658,0 -17.2475443477254,14.7245084934102,0 -17.2474038538793,14.724959387665,0 -17.2473075912953,14.7250018269873,0 -17.2471178993087,14.7250467499093,0 -17.246991513995,14.7252012578405,0 -17.2468489862153,14.7255467580556,0 -17.2468529024957,14.7259289289306,0 -17.246866398519,14.7260186472608,0 -17.2468550239529,14.7261359470704,0 -17.2469002031833,14.7262699400729,0 -17.2468719284097,14.7264309787163,0 -17.2467122909892,14.7267055485685,0 -17.246521361895,14.7269416577037,0 -17.246383884328,14.7270306963601,0 -17.246114434784,14.7272126459033,0 -17.24592410377,14.7276428102198,0 -17.2460197486456,14.72770196087,0 -17.2462810765861,14.7276994247575,0 -17.2465833605287,14.7277519479875,0 -17.2471924366359,14.7280649133112,0 -17.247375572761,14.7283150025953,0</coordinates></LineString></MultiGeometry>
  </Placemark>
  <Placemark id="routes.12">
	<Style><LineStyle><color>ff0000ff</color></LineStyle><PolyStyle><fill>0</fill></PolyStyle></Style>
	<ExtendedData><SchemaData schemaUrl="#routes">
		<SimpleData name="Shape_Leng">413.65147096400</SimpleData>
		<SimpleData name="Type">Piste</SimpleData>
	</SchemaData></ExtendedData>
      <MultiGeometry><LineString><coordinates>-17.2477788585427,14.7185993230858,0 -17.2477744201534,14.7186041241816,0 -17.2477701381695,14.7186090592895,0 -17.2477660180955,14.7186141220313,0 -17.2477620626793,14.7186193087663,0 -17.2477582764972,14.7186246131251,0 -17.2477546622877,14.7186300305637,0 -17.2477512255741,14.7186355565107,0 -17.2477505533155,14.7186367204642,0 -17.2477499221219,14.718637905704,0 -17.247749331984,14.7186391113265,0 -17.2477487847305,14.7186403346035,0 -17.2477482785143,14.7186415764564,0 -17.2477478160829,14.7186428332444,0 -17.2477473974364,14.7186441049676,0 -17.2477470234753,14.7186453889065,0 -17.2477466932713,14.7186466850702,0 -17.2477464086624,14.7186479916337,0 -17.2477461686927,14.7186493058958,0 -17.2477459752185,14.7186506278384,0 -17.2477458263556,14.7186519547692,0 -17.2477457239606,14.7186532866702,0 -17.2477456680056,14.7186546208311,0 -17.2477456310575,14.7186597126097,0 -17.2477457751173,14.7186648026315,0 -17.2477461001202,14.7186698845722,0 -17.2477466041449,14.7186749521258,0 -17.2477472890017,14.7186800007571,0 -17.2477481508942,14.718685022371,0 -17.2477491916419,14.7186900133358,0 -17.2477504083769,14.7186949655474,0 -17.2477518001153,14.7186998735943,0 -17.2477533640168,14.7187047320827,0 -17.2477551009541,14.718709535583,0 -17.2477570062214,14.7187142778162,0 -17.2477590788346,14.7187189533704,0 -17.2477613159444,14.7187235559487,0 -17.2477643250223,14.7187297493875,0 -17.2477671113744,14.7187360407628,0 -17.247769672142,14.7187424228741,0 -17.2477720026003,14.7187488876354,0 -17.247774100819,14.7187554278372,0 -17.2477759648488,14.718762034463,0 -17.2477775918218,14.718768699409,0 -17.2477789798166,14.718775416369,0 -17.2477801278124,14.7187821763176,0 -17.2477810329319,14.7187889702473,0 -17.2477816951009,14.7187957909307,0 -17.2477821133079,14.7188026302456,0 -17.2477859289651,14.718945250546,0 -17.2477850397092,14.7190882228113,0 -17.2477844201699,14.7191043162657,0 -17.2477832907082,14.7191203839495,0 -17.247781653942,14.7191364095737,0 -17.2477795106513,14.7191523786741,0 -17.2477768625351,14.7191682758743,0 -17.2477766894622,14.7191693238478,0 -17.2477765526374,14.7191703759871,0 -17.2477764520604,14.7191714322922,0 -17.2477763877129,14.7191724909563,0 -17.2477763595856,14.7191735510759,0 -17.2477763685974,14.7191746117385,0 -17.2477764128826,14.7191756720587,0 -17.24777649427,14.7191767293082,0 -17.2477766118405,14.7191777843994,0 -17.2477767655664,14.719178834622,0 -17.2477769554384,14.7191798790725,0 -17.2477771805191,14.7191809168565,0 -17.247777441718,14.7191819461582,0 -17.2477777381071,14.7191829669864,0 -17.2477780687395,14.7191839775433,0 -17.2477784345342,14.7191849769165,0 -17.2477788345537,14.7191859642116,0 -17.2477792678514,14.7191869376306,0 -17.2477797344178,14.7191878962701,0 -17.2477819610187,14.7191921068152,0 -17.2477843242876,14.7191962464614,0 -17.2477868232499,14.7192003107006,0 -17.2477894550652,14.7192042941392,0 -17.247792215993,14.7192081941027,0 -17.2478144750981,14.7192393876252,0 -17.2478359282907,14.7192711130179,0 -17.2478739035458,14.719329056729,0 -17.2478856547099,14.7193472880318,0 -17.2478898738483,14.7193541564073,0 -17.2478938696099,14.7193611498318,0 -17.2478976372796,14.7193682611228,0 -17.2479011749358,14.7193754839743,0 -17.2479044778727,14.7193828121072,0 -17.2479075432128,14.719390236514,0 -17.2479424116753,14.7194818200579,0 -17.2479751007625,14.7195741611298,0 -17.247987678061,14.7196125820225,0 -17.2479993168974,14.7196512830848,0 -17.2480256822487,14.7197500626811,0 -17.2480300222298,14.719769083326,0 -17.2480336970246,14.7197882369234,0 -17.2480367036074,14.7198075000106,0 -17.2480390380522,14.7198268518446,0 -17.2480406982614,14.7198462689538,0 -17.2480416812281,14.7198657296827,0 -17.2480419867297,14.7198852123486,0 -17.2480418029562,14.7198951801216,0 -17.2480412857926,14.7199051366748,0 -17.2480404351371,14.7199150720701,0 -17.2480392527258,14.7199249745448,0 -17.2480377403131,14.7199348341429,0 -17.2480358978066,14.71994464183,0 -17.2480337287896,14.7199543849219,0 -17.2480312340976,14.719964054375,0 -17.2480284173325,14.719973639312,0 -17.2480252821054,14.7199831297589,0 -17.2480204351173,14.7199962536737,0 -17.248015114744,14.7200092032843,0 -17.2480093291636,14.7200219613441,0 -17.2480030837975,14.7200345133439,0 -17.2479963877614,14.7200468429315,0 -17.2479892492521,14.7200589346672,0 -17.2479816755474,14.7200707740238,0 -17.2479649343964,14.7200968300487,0 -17.2479490384942,14.7201233838467,0 -17.2479340042813,14.720150409056,0 -17.2479198472603,14.7201778784199,0 -17.2479065792303,14.7202057656217,0 -17.2478949375445,14.7202324642468,0 -17.2478842139807,14.7202595244079,0 -17.2478744212385,14.7202869170689,0 -17.2478655710799,14.7203146122989,0 -17.2478576715263,14.720342577493,0 -17.2478552875143,14.7203509998965,0 -17.2478526083573,14.7203593384258,0 -17.2478496376479,14.7203675813001,0 -17.2478463780967,14.7203757212647,0 -17.2478428333056,14.7203837474424,0 -17.2478390087423,14.720391649841,0 -17.2478349080456,14.7203994211971,0 -17.2478305357457,14.7204070506242,0 -17.2478258973288,14.7204145299372,0 -17.2478247617059,14.7204162260539,0 -17.2478235671957,14.7204178829868,0 -17.2478223147079,14.7204194989198,0 -17.2478210051615,14.7204210729406,0 -17.2478196413043,14.7204226014084,0 -17.2478182249834,14.7204240834016,0 -17.2478167561803,14.7204255171134,0 -17.2478152376614,14.7204269007099,0 -17.2478136712646,14.7204282323661,0 -17.247812058837,14.7204295111606,0 -17.2478104012886,14.7204307352775,0 -17.2478087023137,14.7204319028738,0 -17.2478069628222,14.7204330121337,0 -17.2478051856079,14.7204340639335,0 -17.2478033715622,14.7204350546504,0 -17.2478015234698,14.7204359842575,0 -17.2477996441062,14.7204368518242,0 -17.2477969488727,14.7204380959532,0 -17.2477943009961,14.720439431783,0 -17.2477917023145,14.7204408574887,0 -17.2477891565223,14.7204423712274,0 -17.2477866663766,14.7204439702617,0 -17.247784235581,14.7204456536521,0 -17.2477818678209,14.7204474186523,0 -17.2477795640152,14.7204492643498,0 -17.2477773287682,14.7204511870857,0 -17.2477751639085,14.7204531841317,0 -17.24777307314,14.7204552545483,0 -17.2477710573631,14.7204573956162,0 -17.2477691202538,14.7204596036856,0 -17.247767264569,14.720461876019,0 -17.2477625737192,14.7204680439074,0 -17.247758098851,14.720474361493,0 -17.2477538454599,14.7204808214942,0 -17.2477498190598,14.7204874184362,0 -17.247746022343,14.7204941432577,0 -17.247742460805,14.7205009886769,0 -17.2477391380846,14.7205079474302,0 -17.2477360578117,14.7205150113507,0 -17.2477332245349,14.7205221713588,0 -17.2477306409741,14.7205294211035,0 -17.2477283088842,14.7205367506287,0 -17.24771679664,14.7205774428454,0 -17.247706517634,14.7206184456528,0 -17.2476974798787,14.7206597255422,0 -17.2476896913494,14.7207012453913,0 -17.2476831581837,14.7207429699029,0 -17.2476760980747,14.7207991335004,0 -17.2476707488719,14.7208554747499,0 -17.2476688250724,14.7208844381667,0 -17.2476676647615,14.7209134393488,0 -17.2476672696109,14.7209424602094,0 -17.2476674430845,14.72095241277,0 -17.2476679719966,14.7209623537483,0 -17.2476688571459,14.7209722704873,0 -17.2476700965649,14.7209821521636,0 -17.2476716891772,14.720991984331,0 -17.2476736330338,14.7210017579731,0 -17.2476759242735,14.7210114586709,0 -17.2476785627946,14.7210210764863,0 -17.2476815428979,14.7210305988252,0 -17.2476848616784,14.7210400139699,0 -17.2476885162402,14.721049311106,0 -17.2476925009027,14.7210584794463,0 -17.2476968118233,14.7210675063784,0 -17.2477014433306,14.7210763820186,0 -17.2477063888066,14.7210850946851,0 -17.2477116435081,14.7210936344851,0 -17.2477172008356,14.7211019915438,0 -17.2477206470232,14.7211071705826,0 -17.2477239105367,14.7211124607225,0 -17.2477269848319,14.7211178575091,0 -17.2477298688879,14.7211233519172,0 -17.2477325589548,14.721128940369,0 -17.2477350502985,14.721134613875,0 -17.2477373410071,14.7211403670327,0 -17.2477394291592,14.7211461935359,0 -17.2477413109677,14.7211520861932,0 -17.2477429854303,14.7211580377861,0 -17.2477444487598,14.7211640411229,0 -17.2477457018197,14.7211700898706,0 -17.2477467408229,14.7211761768377,0 -17.2477475666235,14.7211822947876,0 -17.2477481763627,14.7211884365198,0 -17.247748570904,14.7211945957011,0 -17.2477487482981,14.7212007633152,0 -17.2477487094178,14.7212069339324,0 -17.2477484541798,14.7212130994216,0 -17.2477479815816,14.7212192525644,0 -17.2477472943433,14.7212253870095,0 -17.2477463923815,14.7212314946259,0 -17.2477413926121,14.7212591542849,0 -17.2477355882797,14.7212866636357,0 -17.2477330383624,14.7212971061468,0 -17.2477301347723,14.7213074608342,0 -17.2477268820302,14.7213177159082,0 -17.2477130645794,14.7213566776485,0 -17.2476979482827,14.7213951785449,0 -17.2476815475934,14.721433179605,0 -17.2476462949252,14.7215150278985,0 -17.2476139316202,14.7215979983414,0 -17.2475920399255,14.7216595735234,0 -17.2475717540102,14.7217216671061,0 -17.2475102756003,14.7219297344896,0 -17.2475082485836,14.7219374839077,0 -17.247506469095,14.7219452905564,0 -17.2475049398451,14.721953147181,0 -17.2475036607598,14.721961046554,0 -17.2475026336124,14.7219689805263,0 -17.2475018601854,14.7219769418523,0 -17.2475013403955,14.7219849224011,0 -17.2474997861752,14.7220306554539,0 -17.2474996135955,14.7220764130432,0 -17.2475008231783,14.7221221554084,0</coordinates></LineString></MultiGeometry>
  </Placemark>
  <Placemark id="routes.13">
	<Style><LineStyle><color>ff0000ff</color></LineStyle><PolyStyle><fill>0</fill></PolyStyle></Style>
	<ExtendedData><SchemaData schemaUrl="#routes">
		<SimpleData name="Shape_Leng">46.15210018730</SimpleData>
		<SimpleData name="Type">Piste</SimpleData>
	</SchemaData></ExtendedData>
      <MultiGeometry><LineString><coordinates>-17.2486580448965,14.7183525202864,0 -17.2488651508812,14.7183505092052,0 -17.2490859159533,14.7183354185414,0</coordinates></LineString></MultiGeometry>
  </Placemark>
  <Placemark id="routes.14">
	<Style><LineStyle><color>ff0000ff</color></LineStyle><PolyStyle><fill>0</fill></PolyStyle></Style>
	<ExtendedData><SchemaData schemaUrl="#routes">
		<SimpleData name="Shape_Leng">86.00852061330</SimpleData>
		<SimpleData name="Type">Piste</SimpleData>
	</SchemaData></ExtendedData>
      <MultiGeometry><LineString><coordinates>-17.2491139128464,14.7168198517166,0 -17.2489713774057,14.7168219577584,0 -17.2488521233215,14.716862807101,0 -17.248707789277,14.7169597970687,0 -17.2485372569013,14.7170646888322,0 -17.2484270054206,14.7171123210576,0 -17.248398052719,14.717124829671,0</coordinates></LineString></MultiGeometry>
  </Placemark>
  <Placemark id="routes.15">
	<Style><LineStyle><color>ff0000ff</color></LineStyle><PolyStyle><fill>0</fill></PolyStyle></Style>
	<ExtendedData><SchemaData schemaUrl="#routes">
		<SimpleData name="Shape_Leng">103.68191722900</SimpleData>
		<SimpleData name="Type">Piste</SimpleData>
	</SchemaData></ExtendedData>
      <MultiGeometry><LineString><coordinates>-17.2482984822332,14.7166227324682,0 -17.2486270798267,14.7164874835944,0 -17.248795437749,14.7164057931186,0 -17.2491734379615,14.7162331075135,0</coordinates></LineString></MultiGeometry>
  </Placemark>
  <Placemark id="routes.16">
	<Style><LineStyle><color>ff0000ff</color></LineStyle><PolyStyle><fill>0</fill></PolyStyle></Style>
	<ExtendedData><SchemaData schemaUrl="#routes">
		<SimpleData name="Shape_Leng">96.92808760340</SimpleData>
		<SimpleData name="Type">Piste</SimpleData>
	</SchemaData></ExtendedData>
      <MultiGeometry><LineString><coordinates>-17.2479142886215,14.715300625937,0 -17.248098939999,14.7152203889236,0 -17.2487964790969,14.715222573637,0</coordinates></LineString></MultiGeometry>
  </Placemark>
  <Placemark id="routes.17">
	<Style><LineStyle><color>ff0000ff</color></LineStyle><PolyStyle><fill>0</fill></PolyStyle></Style>
	<ExtendedData><SchemaData schemaUrl="#routes">
		<SimpleData name="Shape_Leng">334.09909979500</SimpleData>
		<SimpleData name="Type">Piste</SimpleData>
	</SchemaData></ExtendedData>
      <MultiGeometry><LineString><coordinates>-17.2459488217554,14.7161814462604,0 -17.245902270981,14.7162759702321,0 -17.2456312431356,14.7167319710257,0 -17.2453331219858,14.7173806532323,0 -17.2448934640882,14.7178645785175,0 -17.2446200468088,14.7182068166722,0 -17.2444762139102,14.718470587876,0 -17.2443503750014,14.7187424628465,0</coordinates></LineString></MultiGeometry>
  </Placemark>
  <Placemark id="routes.18">
	<Style><LineStyle><color>ff0000ff</color></LineStyle><PolyStyle><fill>0</fill></PolyStyle></Style>
	<ExtendedData><SchemaData schemaUrl="#routes">
		<SimpleData name="Shape_Leng">581.33586017700</SimpleData>
		<SimpleData name="Type">Piste</SimpleData>
	</SchemaData></ExtendedData>
      <MultiGeometry><LineString><coordinates>-17.2486580448965,14.7183525202864,0 -17.2484580146633,14.7184169373891,0 -17.248359854814,14.7184459795022,0 -17.2478487071357,14.7185846023631,0 -17.2478256024432,14.7185902875954,0 -17.2478023106181,14.7185951957947,0 -17.2477788585427,14.7185993230858,0 -17.2477625966372,14.7186016575441,0 -17.2477462684959,14.7186035074458,0 -17.2477298908275,14.7186048726288,0 -17.2477134766088,14.71860575116,0 -17.2476970434583,14.7186061410613,0 -17.2476806062463,14.7186060439954,0 -17.2476200562348,14.7186057606706,0 -17.2475595308187,14.7186074251129,0 -17.2474990949645,14.7186110357886,0 -17.2474455786177,14.7186158840009,0 -17.2473922351061,14.718622289122,0 -17.2473391126418,14.7186302452633,0 -17.247286259437,14.7186397465359,0 -17.2472337208915,14.7186507843677,0 -17.2471815460901,14.7186633474405,0 -17.2471448435256,14.7186721588743,0 -17.2471078760152,14.7186798470684,0 -17.2470706778397,14.7186864053653,0 -17.2470332879118,14.7186918261589,0 -17.2469957414593,14.7186961045895,0 -17.2469580755847,14.7186992375864,0 -17.2469203283005,14.718701220263,0 -17.246893510701,14.7187017876653,0 -17.2468666889142,14.7187014931321,0 -17.2468398917256,14.7187003372878,0 -17.2468131479201,14.7186983207566,0 -17.2467864881582,14.7186954459515,0 -17.2467599393961,14.7186917162253,0 -17.2467335323034,14.7186871348944,0 -17.246696764041,14.7186807421999,0 -17.2466598043188,14.7186755060752,0 -17.2466226894026,14.7186714324933,0 -17.2465854592434,14.7186685246807,0 -17.2465481519448,14.7186667867855,0 -17.2465108065019,14.718666219333,0 -17.2463629093953,14.7186683262449,0 -17.2462151318635,14.7186744969106,0 -17.2460675917304,14.7186847247674,0 -17.2457712124292,14.7187139561983,0 -17.245475927632,14.718752268932,0 -17.2453658058892,14.718769748528,0 -17.2452562035394,14.7187900863449,0 -17.2451176245176,14.7188161931212,0 -17.2449785102836,14.7188394444106,0 -17.2449088975051,14.7188493064097,0 -17.2448390123603,14.7188571380715,0 -17.2447689188354,14.7188629324505,0 -17.2446986781505,14.7188666844352,0 -17.2446283533914,14.7188683897995,0 -17.244604083937,14.7188682229644,0 -17.2445798350492,14.7188672535866,0 -17.2445556336566,14.7188654823088,0 -17.2445315085537,14.718862910659,0 -17.2445074867063,14.7188595428934,0 -17.244483596918,14.7188553814435,0 -17.2444598661729,14.7188504323724,0 -17.2444363223651,14.7188446999277,0 -17.2444330945793,14.7188437978578,0 -17.2444299000388,14.7188427879448,0 -17.2444267452321,14.7188416692222,0 -17.2444236311243,14.7188404452948,0 -17.2444205632849,14.7188391161087,0 -17.2444175445265,14.7188376843471,0 -17.2444145785712,14.7188361508777,0 -17.2444116691506,14.7188345174712,0 -17.2444088200054,14.7188327868021,0 -17.2444060348671,14.7188309606412,0 -17.2444033165481,14.7188290416718,0 -17.2444006687799,14.718827031665,0 -17.2443980934468,14.7188249333131,0 -17.2443955961367,14.718822748369,0 -17.2443931768866,14.7188204804464,0 -17.2443908412938,14.7188181322017,0 -17.2443885912424,14.7188157063273,0 -17.2443864286167,14.7188132055156,0 -17.2443843571667,14.7188106333443,0 -17.2443823787673,14.7188079916024,0 -17.2443804953305,14.7188052856925,0 -17.2443787105784,14.7188025164821,0 -17.244377025495,14.718799689383,0 -17.2443754428833,14.7187968061749,0 -17.2443739646461,14.7187938713572,0 -17.2443725917485,14.7187908885346,0 -17.2443713260841,14.718787861303,0 -17.2443701695371,14.7187847923547,0 -17.2443691240102,14.7187816861889,0 -17.2443681895524,14.7187789105447,0 -17.2443671579613,14.7187761683692,0 -17.2443660301836,14.7187734614603,0 -17.2443648062657,14.7187707943352,0 -17.2443634899481,14.7187681696683,0 -17.2443620803397,14.7187655910824,0 -17.2443605811812,14.7187630612519,0 -17.2443589934285,14.7187605828779,0 -17.2443573189658,14.7187581586531,0 -17.244355559696,14.7187557930764,0 -17.2443537174846,14.7187534870335,0 -17.2443517942253,14.7187512441201,0 -17.2443497936586,14.7187490670106,0 -17.2443477176782,14.7187469593007,0 -17.2443455672122,14.7187449209814,0 -17.2443433460198,14.7187429565341,0 -17.2443410578325,14.7187410677296,0 -17.2443387026688,14.7187392563748,0 -17.2443362861351,14.7187375260296,0 -17.2443338091598,14.7187358766848,0 -17.2443312754927,14.7187343119184,0 -17.2443286879279,14.7187328326068,0 -17.2443260492686,14.7187314405298,0 -17.2443233632554,14.7187301383619,0 -17.2443206326824,14.7187289269795,0 -17.2443178603436,14.7187278072591,0 -17.2443150509079,14.718726781866,0 -17.2443122062318,14.7187258507822,0 -17.2443093309659,14.7187250148662,0 -17.2443064279225,14.7187242768014,0 -17.2443034998864,14.7187236365607,0 -17.2442989061747,14.7187227919996,0 -17.2442942852586,14.7187221013033,0 -17.2442896436451,14.7187215653123,0 -17.2442849850657,14.7187211857975,0 -17.2442803160088,14.7187209617925,0 -17.2442756411157,14.7187208932524,0 -17.2442709678309,14.718720981912,0 -17.244266299858,14.7187212268319,0 -17.2442616427666,14.7187216279581,0 -17.244257003045,14.7187221843243,0 -17.2442523862537,14.718722894973,0 -17.2442477970338,14.7187237598592,0 -17.2442432400172,14.7187247780345,0 -17.2442387226116,14.7187259476201,0 -17.2442342494488,14.7187272676675,0 -17.2442260179532,14.7187299993202,0 -17.2442178866962,14.7187330010622,0 -17.2442098649325,14.7187362700934,0 -17.2442019628358,14.7187398027011,0 -17.2441941877859,14.7187435942959,0 -17.2441865499566,14.7187476411652,0 -17.2441790576465,14.7187519378073,0 -17.2441717191731,14.7187564805277,0 -17.2441645446822,14.718761262903,0 -17.2441575406254,14.7187662803533,0 -17.2441507162112,14.7187715255609,0 -17.2441476801631,14.7187740297702,0 -17.2441447351902,14.718776634293,0 -17.2441418859245,14.7187793381809,0 -17.2441391350951,14.7187821359863,0 -17.244136486406,14.7187850267697,0 -17.2441339425864,14.7187880050834,0 -17.244131506384,14.7187910672868,0 -17.2441291824124,14.7187942106244,0 -17.2441269715629,14.7187974314734,0 -17.2441248784305,14.7188007252718,0 -17.2441229038972,14.7188040874931,0 -17.2441210507201,14.7188075154002,0 -17.2441193225567,14.7188110035364,0 -17.24411771937,14.7188145482878,0 -17.2441162448269,14.7188181451012,0 -17.2441148998186,14.7188217903539,0 -17.2441136852179,14.7188254786162,0 -17.2441126047009,14.7188292062383,0 -17.2441116582121,14.7188329677996,0 -17.2441108466335,14.7188367587737,0 -17.244110171794,14.7188405764324,0 -17.2441096336196,14.7188444135481,0 -17.2441092339298,14.718848266489,0 -17.2441089717594,14.7188521316503,0 -17.2441088489003,14.7188560026899,0 -17.2441088634497,14.7188598751086,0 -17.2441088817173,14.7188638387484,0 -17.2441087607106,14.7188678001237,0 -17.2441085022493,14.7188717556028,0 -17.2441081062777,14.7188756997649,0 -17.2441075718307,14.7188796290053,0 -17.2441069016375,14.7188835378762,0 -17.244106094733,14.7188874227729,0 -17.2441051538556,14.7188912791511,0 -17.2441040780217,14.7188951015993,0 -17.2441028699791,14.7188988864765,0 -17.2441015306096,14.7189026292565,0 -17.2441000607955,14.7189063254132,0 -17.2440984632844,14.7189099713057,0 -17.2440967398774,14.7189135614954,0 -17.2440948924033,14.7189170932539,0 -17.2440929226723,14.7189205620461,0 -17.2440908324947,14.7189239633366,0 -17.2440886255559,14.7189272943791,0 -17.2440863027285,14.718930549744,0 -17.2440838686261,14.7189337266759,0 -17.2440813250682,14.7189368215431,0 -17.2440786748026,14.7189398307048,0 -17.2440759205771,14.7189427505202,0 -17.244073066996,14.7189455773305,0 -17.2440701158879,14.7189483084074,0 -17.2440670718665,14.7189509409956,0 -17.2440596737729,14.7189569163973,0 -17.2440520763855,14.7189626488717,0 -17.244044288003,14.7189681329168,0 -17.2440363159775,14.7189733612333,0 -17.2440281704829,14.7189783301083,0 -17.2440198588712,14.7189830322423,0 -17.2440113922351,14.71898746301,0 -17.2440027788828,14.7189916178133,0 -17.2439940280505,14.718995492045,0 -17.2439851508311,14.7189990810798,0 -17.2439761555325,14.7190023803196,0 -17.2439670523472,14.7190053878585,0 -17.2439578514396,14.7190080990803,0 -17.2439485629928,14.7190105111757,0 -17.2439391971991,14.7190126222389,0 -17.2439297651605,14.7190144285481,0 -17.2439202761504,14.7190159291099,0 -17.2439140354504,14.7190167078933,0 -17.2439077713028,14.7190172818009,0 -17.243901491115,14.7190176489538,0 -17.243895201385,14.7190178092889,0 -17.2438889095479,14.7190177636378,0 -17.2438826230112,14.7190175101217,0 -17.2438763492195,14.7190170504754,0 -17.2438700946705,14.719016384636,0 -17.2438638667995,14.719015513435,0 -17.2438576730509,14.7190144386074,0 -17.2438515199226,14.7190131600901,0 -17.24384541394,14.7190116805306,0 -17.2438393634666,14.7190100007514,0 -17.2438333750186,14.7190081224964,0 -17.2438274551309,14.7190060493163,0 -17.2438216103104,14.7190037820518,0 -17.2438158470918,14.7190013242537,0 -17.2438101729288,14.7189986785603,0 -17.2438045943377,14.7189958467157,0 -17.2437991160153,14.7189928340954,0 -17.2437937463434,14.7189896433289,0 -17.2437909485348,14.7189878489068,0 -17.2437882184465,14.718985958957,0 -17.2437855579625,14.718983976172,0 -17.2437838085704,14.7189826667298,0 -17.2437820207094,14.7189814082583,0 -17.2437801934788,14.718980203477,0 -17.2437783305918,14.7189790523498,0 -17.2437753442246,14.7189773383622,0 -17.2437722994937,14.7189757270397,0 -17.243769198274,14.7189742201712,0 -17.2437660452161,14.7189728186153,0 -17.2437628431325,14.7189715250554,0 -17.2437595976111,14.7189703412442,0 -17.2437563114366,14.7189692671548,0 -17.243752988359,14.7189683063652,0 -17.2437496339385,14.7189674579177,0 -17.2437462500595,14.7189667245049,0 -17.2437428432195,14.7189661060637,0 -17.2437394152844,14.7189656034797,0 -17.2437359718329,14.7189652176022,0 -17.2437325165779,14.7189649483953,0 -17.2437290532418,14.7189647967265,0 -17.2437255873939,14.7189647625418,0 -17.2437221218283,14.7189648467177,0 -17.243718662096,14.7189650473933,0 -17.243715210991,14.7189653654451,0 -17.2437117731545,14.7189658008282,0 -17.2437083541374,14.7189663516817,0 -17.2437049558057,14.7189670188909,0 -17.2437015837102,14.7189678005952,0 -17.2436982415547,14.718968695855,0 -17.2436949339804,14.7189697046254,0 -17.243691664682,14.7189708250635,0 -17.2436884364256,14.7189720553355,0 -17.2436852547622,14.7189733935805,0 -17.2436821234048,14.7189748397625,0 -17.2436790451106,14.7189763911442,0 -17.2436760245021,14.7189780458737,0 -17.2436730643457,14.7189798021172,0 -17.2436701701925,14.7189816580139,0 -17.2436672876175,14.7189836475218,0 -17.2436644756314,14.7189857312172,0 -17.2436617388478,14.7189879063447,0 -17.2436590800328,14.7189901710706,0 -17.2436565010153,14.7189925226664,0 -17.2436540054714,14.7189949574823,0 -17.2436515971047,14.7189974745791,0 -17.2436492777163,14.7190000685179,0 -17.2436470510193,14.7190027392629,0 -17.2436449178864,14.7190054813844,0 -17.2436428820029,14.7190082921359,0 -17.2436409461259,14.7190111687803,0 -17.2436391111558,14.7190141085982,0 -17.243637379822,14.7190171061419,0 -17.2436357549001,14.719020160481,0 -17.2436342372627,14.7190232661858,0 -17.2436328287387,14.7190264205279,0 -17.2436315311477,14.7190296198757,0 -17.2436303462999,14.7190328596939,0 -17.2436292750959,14.7190361372631,0 -17.2436283193459,14.7190394480482,0 -17.2436274799413,14.7190427884263,0 -17.2436267568544,14.719046155687,0 -17.2436261528052,14.7190495434794,0 -17.243625666847,14.7190529500054,0 -17.2436253007901,14.7190563707299,0 -17.2436250536693,14.7190598020481,0 -17.2436249272856,14.7190632385213,0 -17.2436249197642,14.7190666783605,0 -17.243625033825,14.7190701152147,0 -17.2436252666648,14.7190735473039,0 -17.2436256200847,14.7190769691895,0 -17.2436260931195,14.7190803772667,0</coordinates></LineString></MultiGeometry>
  </Placemark>
  <Placemark id="routes.19">
	<Style><LineStyle><color>ff0000ff</color></LineStyle><PolyStyle><fill>0</fill></PolyStyle></Style>
	<ExtendedData><SchemaData schemaUrl="#routes">
		<SimpleData name="Shape_Leng">269.60978721300</SimpleData>
		<SimpleData name="Type">Piste</SimpleData>
	</SchemaData></ExtendedData>
      <MultiGeometry><LineString><coordinates>-17.2484213343723,14.7172422294218,0 -17.2481827940914,14.7173709668103,0 -17.2480733256209,14.7174298077784,0 -17.2477540280758,14.7176008397827,0 -17.2475994729292,14.7176836886682,0 -17.2475779898894,14.7176956946187,0 -17.2475569430251,14.7177084119344,0 -17.2475363581697,14.7177218250047,0 -17.2475162583718,14.7177359182458,0 -17.2474966676082,14.7177506760652,0 -17.2474914535578,14.7177546118668,0 -17.2474861106166,14.7177583808616,0 -17.2474806443078,14.7177619784783,0 -17.2474750620387,14.7177654028379,0 -17.2474693674669,14.7177686484837,0 -17.2474635679904,14.7177717126333,0 -17.24745767007,14.7177745916099,0 -17.2474516783284,14.7177772835615,0 -17.2474456010735,14.7177797838897,0 -17.2474394429373,14.7177820916462,0 -17.2474387870164,14.7177823130529,0 -17.2474381243758,14.7177825128399,0 -17.2474374540686,14.7177826892095,0 -17.2474367788981,14.7177828439413,0 -17.2474360979174,14.7177829752377,0 -17.2474354129924,14.7177830839839,0 -17.2474347250513,14.717783170171,0 -17.2474340340756,14.7177832319921,0 -17.247433341012,14.7177832712451,0 -17.2474326477171,14.7177832879119,0 -17.2474319541723,14.7177832801857,0 -17.247431260396,14.7177832498734,0 -17.2474305691639,14.7177831960444,0 -17.2474298795476,14.7177831187079,0 -17.2474291934129,14.7177830187492,0 -17.2474285107598,14.7177828961683,0 -17.2474278334355,14.7177827500438,0 -17.2474271614586,14.7177825821825,0 -17.247426186051,14.7177823368512,0 -17.2474252026225,14.717782124125,0 -17.2474242130294,14.7177819439859,0 -17.2474232172811,14.7177817973373,0 -17.2474222172155,14.7177816823543,0 -17.2474212128512,14.7177816008439,0 -17.2474202069728,14.7177815527789,0 -17.2474192004993,14.717781537247,0 -17.2474181934401,14.7177815551516,0 -17.2474171876515,14.7177816064746,0 -17.2474161840526,14.7177816903037,0 -17.2474151835808,14.7177818075332,0 -17.247414189021,14.7177819581361,0 -17.2474131994263,14.7177821403146,0 -17.2474122166717,14.7177823558576,0 -17.2474097796471,14.7177829758403,0 -17.2474073666708,14.7177836778113,0 -17.2474049805182,14.7177844608402,0 -17.2474026230365,14.7177853240054,0 -17.2474002988578,14.7177862663586,0 -17.2473980089009,14.7177872869873,0 -17.2473957568603,14.7177883840484,0 -17.2473935445833,14.7177895566206,0 -17.2473913766926,14.717790802852,0 -17.2473892541164,14.7177921227336,0 -17.2473871796023,14.7177935126244,0 -17.247385155926,14.7177949715942,0 -17.2473831858628,14.7177964987123,0 -17.2473812712415,14.7177980912505,0 -17.2473794148282,14.7177997473748,0 -17.2473776184703,14.7178014661638,0 -17.2473758849154,14.7178032439767,0 -17.2473742150732,14.7178050789975,0 -17.2473726126383,14.7178069693834,0 -17.2473710775921,14.7178089133275,0 -17.2473696136105,14.71781090718,0 -17.2473682216125,14.7178129500283,0 -17.2473635536282,14.7178198061758,0 -17.2473586528917,14.7178265064632,0 -17.2473535230327,14.7178330427235,0 -17.2473481704654,14.7178394067625,0 -17.2473426016323,14.7178455930965,0 -17.2473368220192,14.7178515935405,0 -17.2473308389968,14.7178574026017,0 -17.2473246599075,14.717863012077,0 -17.2473182893371,14.7178684165006,0 -17.2473117365033,14.7178736094585,0 -17.2473050087856,14.7178785863613,0 -17.2472981126078,14.7178833399182,0 -17.2472564785659,14.7179101569719,0 -17.2472140486015,14.7179357637768,0 -17.2470772649112,14.7180122561262,0 -17.2470633897929,14.7180193949617,0 -17.247049278905,14.7180260834129,0 -17.2470349498286,14.7180323158879,0 -17.2470204163947,14.7180380832171,0 -17.2470056952657,14.7180433807211,0 -17.2469908030851,14.7180482019135,0 -17.2469757546587,14.7180525421331,0 -17.2469605675677,14.718056395788,0 -17.2469452575645,14.7180597600148,0 -17.2469298422303,14.7180626292215,0 -17.2469143373362,14.7180650023516,0 -17.2469086574341,14.718065875159,0 -17.2469030110447,14.7180669382871,0 -17.2468974055661,14.7180681889535,0 -17.2468918474868,14.7180696261918,0 -17.2468863442234,14.7180712490265,0 -17.2468809013268,14.7180730555966,0 -17.2468755243296,14.7180750422343,0 -17.2468702215766,14.7180772079552,0 -17.2468649986096,14.7180795499949,0 -17.2468598609609,14.7180820646855,0 -17.2468548160474,14.7180847510516,0 -17.2468498675263,14.7180876036365,0 -17.2468450237334,14.7180906205522,0 -17.2468402892637,14.7180937972366,0 -17.2468356696588,14.7180971309252,0 -17.2468311704328,14.7181006161433,0 -17.2468267971364,14.7181042510301,0 -17.2468225543555,14.7181080301197,0 -17.2468150165236,14.7181152158829,0 -17.2468077299679,14.7181226440661,0 -17.2468007029411,14.7181303046506,0 -17.2467939437325,14.7181381912311,0 -17.2467874587288,14.7181462929032,0 -17.2467812571292,14.718154601446,0 -17.2467753444014,14.7181631068676,0 -17.2467697278882,14.7181718009648,0 -17.2467644130478,14.7181806728422,0 -17.2467594062857,14.7181897134026,0 -17.2467547139885,14.7181989117414,0 -17.2467503406956,14.7182082578757,0 -17.2467462909373,14.7182177409192,0 -17.2467425701813,14.71822735088,0 -17.2467216063254,14.7182816317732,0 -17.2466988800441,14.7183352358484,0 -17.2466744140054,14.7183881104802,0 -17.2466482327066,14.7184402003149,0 -17.2466203634757,14.718491454489,0 -17.2465908345507,14.718541820323,0 -17.246557492291,14.7185951153658,0 -17.2465108065019,14.718666219333,0</coordinates></LineString></MultiGeometry>
  </Placemark>
  <Placemark id="routes.20">
	<Style><LineStyle><color>ff0000ff</color></LineStyle><PolyStyle><fill>0</fill></PolyStyle></Style>
	<ExtendedData><SchemaData schemaUrl="#routes">
		<SimpleData name="Shape_Leng">164.40903129000</SimpleData>
		<SimpleData name="Type">Piste</SimpleData>
	</SchemaData></ExtendedData>
      <MultiGeometry><LineString><coordinates>-17.2479153410507,14.7154550045861,0 -17.2475824602125,14.7157889153376,0 -17.2473186391097,14.7160535511275,0 -17.247053145927,14.716319864519,0 -17.2469035158335,14.7165594221917,0</coordinates></LineString></MultiGeometry>
  </Placemark>
  <Placemark id="routes.21">
	<Style><LineStyle><color>ff0000ff</color></LineStyle><PolyStyle><fill>0</fill></PolyStyle></Style>
	<ExtendedData><SchemaData schemaUrl="#routes">
		<SimpleData name="Shape_Leng">506.36460448000</SimpleData>
		<SimpleData name="Type">Piste</SimpleData>
	</SchemaData></ExtendedData>
      <MultiGeometry><LineString><coordinates>-17.2478351321638,14.7151435673058,0 -17.2475409699221,14.7154044091694,0 -17.2474499780066,14.7154976343021,0 -17.2473606901661,14.7155664537416,0 -17.2471699723821,14.7156941774815,0 -17.2468972675126,14.716013190686,0 -17.2466582813396,14.715815687487,0 -17.2462513277771,14.7160112509943,0 -17.2459488217554,14.7161814462604,0 -17.2458836401152,14.7161536042729,0 -17.2456034665125,14.7162507069661,0 -17.2454114758382,14.7163525545792,0 -17.2450983653695,14.7163648204154,0 -17.2450062762126,14.7163515040334,0 -17.2449215320701,14.7163000874634,0 -17.2445007221813,14.7163963708535,0 -17.2441859788369,14.7164250974749,0 -17.2438734127637,14.7164235530594,0 -17.2437673213416,14.7164920931718,0</coordinates></LineString></MultiGeometry>
  </Placemark>
  <Placemark id="routes.22">
	<Style><LineStyle><color>ff0000ff</color></LineStyle><PolyStyle><fill>0</fill></PolyStyle></Style>
	<ExtendedData><SchemaData schemaUrl="#routes">
		<SimpleData name="Shape_Leng">99.42879326650</SimpleData>
		<SimpleData name="Type">Piste</SimpleData>
	</SchemaData></ExtendedData>
      <MultiGeometry><LineString><coordinates>-17.2468267564032,14.7132186827398,0 -17.2466905267225,14.7132567336265,0 -17.246582424077,14.7132907999403,0 -17.2465188033551,14.7133130629353,0 -17.2464558158645,14.7133369714378,0 -17.2464466646575,14.7133404303704,0 -17.2464374123487,14.713343625547,0 -17.2464280672737,14.7133465550798,0 -17.2464186377402,14.7133492143703,0 -17.2464091320932,14.7133516024343,0 -17.24640718976,14.7133520269572,0 -17.2464052337566,14.7133523856546,0 -17.2464032668676,14.7133526784994,0 -17.2464012900306,14.713352906386,0 -17.2463993069398,14.7133530674716,0 -17.2463973185235,14.7133531617471,0 -17.2463953284947,14.7133531891766,0 -17.246393338719,14.7133531506455,0 -17.2463913510528,14.7133530461358,0 -17.2463893691999,14.713352874708,0 -17.2463873940884,14.7133526363531,0 -17.2463854285215,14.7133523328511,0 -17.2463834743464,14.7133519632804,0 -17.2463694136046,14.713348834249,0 -17.2463554617044,14.7133452740781,0 -17.2463416316781,14.7133412862554,0 -17.2463279384327,14.7133368760576,0 -17.2463143949913,14.713332046069,0 -17.2463072320076,14.7133292251147,0 -17.2463001751387,14.71332616008,0 -17.2462932337223,14.7133228562955,0 -17.2462864161494,14.713319317294,0 -17.246279729892,14.7133155475208,0 -17.2462731833505,14.713311551412,0 -17.2462667858533,14.713307333395,0 -17.2462605439627,14.7133028997309,0 -17.2462544660883,14.7132982557592,0 -17.2462485597113,14.7132934068289,0 -17.2462428313848,14.7132883582974,0 -17.2462372895368,14.7132831173114,0 -17.2462270671739,14.7132734374592,0 -17.2462165177951,14.7132640959891,0 -17.2462056508119,14.7132551054595,0 -17.2461944802402,14.7132464747698,0 -17.2461830182578,14.7132382146442,0 -17.246171277943,14.7132303330878,0 -17.2461592723927,14.7132228399123,0 -17.2461470146943,14.7132157440264,0 -17.2461345188452,14.7132090525224,0 -17.2461262718258,14.7132049843499,0 -17.2461178856273,14.7132011949122,0 -17.246109370497,14.713197687724,0 -17.2461007376199,14.7131944671946,0 -17.2460919953869,14.7131915368567,0 -17.2460831559111,14.7131889011106,0 -17.2460742275649,14.7131865616822,0 -17.2460548501551,14.7131821415233,0 -17.2460353413881,14.7131783108385,0 -17.2460157189556,14.7131750748773,0 -17.2459960023778,14.7131724361612,0 -17.2459762102376,14.7131703963169,0</coordinates></LineString></MultiGeometry>
  </Placemark>
  <Placemark id="routes.23">
	<Style><LineStyle><color>ff0000ff</color></LineStyle><PolyStyle><fill>0</fill></PolyStyle></Style>
	<ExtendedData><SchemaData schemaUrl="#routes">
		<SimpleData name="Shape_Leng">308.68761489800</SimpleData>
		<SimpleData name="Type">Piste</SimpleData>
	</SchemaData></ExtendedData>
      <MultiGeometry><LineString><coordinates>-17.2455499536573,14.7119502951645,0 -17.24558787445,14.7121759599519,0 -17.2456154305271,14.7123535187974,0 -17.2456337479577,14.7124778088314,0 -17.245638386189,14.7125099623017,0 -17.2456402513954,14.7125249537715,0 -17.2456416037674,14.7125399962927,0 -17.2456424413007,14.7125550754282,0 -17.2456427638102,14.7125701731091,0 -17.2456425711202,14.7125852721699,0 -17.2456418621452,14.7126003572609,0 -17.2456406385659,14.7126154111989,0 -17.2456389011348,14.7126304168092,0 -17.2456366524699,14.7126453578027,0 -17.2456338951896,14.7126602178906,0 -17.2456306319119,14.7126749807837,0 -17.2456268661832,14.712689630184,0 -17.2456226024689,14.7127041488809,0 -17.2456178443338,14.7127185223834,0 -17.2456132747424,14.7127323609717,0 -17.2456091995617,14.7127463438509,0 -17.245605623285,14.712760456521,0 -17.2456025512967,14.7127746808591,0 -17.2455999852871,14.712789000585,0 -17.2455979306407,14.712803397576,0 -17.2455963881194,14.7128178555608,0 -17.2455953612513,14.7128323564347,0 -17.2455948489327,14.7128468830411,0 -17.2455948537727,14.7128614181875,0 -17.2455953746675,14.7128759447174,0 -17.2455964114415,14.7128904454653,0 -17.2455979629819,14.7129049023712,0 -17.2456000272565,14.7129192982876,0 -17.2456021663275,14.7129314780072,0 -17.2456046371202,14.7129435975884,0 -17.2456074386323,14.7129556498125,0 -17.2456087464085,14.7129613438726,0 -17.2456098679817,14.7129670758791,0 -17.2456108023591,14.712972839517,0 -17.2456115485476,14.7129786284709,0 -17.2456155618134,14.713020194717,0 -17.2456182764476,14.7130618593872,0 -17.2456196902141,14.7131035854581,0 -17.2456198017864,14.7131453340909,0 -17.2456014900974,14.7137559029489,0 -17.2455875187431,14.714052804962,0 -17.2455829521489,14.7141498529124,0 -17.2455829032467,14.7141506078395,0 -17.2455828292547,14.7141513602992,0 -17.2455827301727,14.7141521102914,0 -17.2455826050542,14.7141528560185,0 -17.2455824548365,14.7141535983746,0 -17.245582279492,14.7141543346496,0 -17.2455820799488,14.7141550648345,0 -17.2455818552787,14.7141557889382,0 -17.2455816054633,14.7141565051537,0 -17.2455813323498,14.7141572125598,0 -17.2455810350098,14.7141579111654,0 -17.2455807143625,14.714158600058,0 -17.2455803703893,14.7141592774308,0 -17.2455800030994,14.7141599441872,0 -17.2455796143309,14.7141605985022,0 -17.2455792031462,14.7141612394816,0 -17.2455746496773,14.7141678559481,0 -17.2455698858683,14.7141743289843,0 -17.2455649144578,14.7141806540459,0 -17.2455597418601,14.7141868229388,0 -17.2455543717419,14.7141928311098,0 -17.2455528121965,14.7141944671726,0 -17.2455511973586,14.7141960522699,0 -17.2455495309226,14.7141975845587,0 -17.2455478128795,14.7141990631355,0 -17.2455460459952,14.7142004861666,0 -17.2455442321078,14.7142018518269,0 -17.2455423739928,14.7142031591862,0 -17.2455404716223,14.7142044055339,0 -17.2455385287186,14.7142055917376,0 -17.2455365471011,14.7142067141655,0 -17.2455345276981,14.7142077728085,0 -17.245532474204,14.7142087658238,0 -17.2455303884752,14.7142096931935,0 -17.2455280578846,14.7142107322647,0 -17.2455257652089,14.714211847769,0 -17.2455235141703,14.7142130405738,0 -17.24552130566,14.7142143070562,0 -17.2455191443192,14.7142156471714,0 -17.2455170310576,14.7142170591035,0 -17.2455149686413,14.7142185410184,0 -17.2455129607742,14.7142200919769,0 -17.2455110083473,14.7142217083561,0 -17.2455091141362,14.7142233892256,0 -17.2455072809071,14.7142251327515,0 -17.2455055104979,14.7142269371089,0 -17.2455044418645,14.7142281030914,0 -17.2455034144337,14.7142293039123,0 -17.2455024300528,14.7142305386503,0 -17.2455014886939,14.7142318045951,0 -17.2455005922042,14.7142331008251,0 -17.2454997405653,14.7142344255335,0 -17.2454989365527,14.7142357777899,0 -17.2454981792288,14.7142371566997,0 -17.2454974713413,14.7142385586223,0 -17.2454968119621,14.7142399835666,0 -17.2454962029291,14.7142414297078,0 -17.2454956451428,14.7142428943264,0 -17.2454951376749,14.7142443774315,0 -17.2454946832824,14.7142458762858,0 -17.2454942810187,14.7142473890913,0 -17.2454939308651,14.7142489140412,0 -17.245493634669,14.714250450214,0 -17.2454933924026,14.7142519948994,0 -17.2454932040473,14.7142535462905,0 -17.245493069594,14.7142551034839,0 -17.2454929899524,14.7142566646635,0 -17.2454929641666,14.7142582271282,0 -17.2454929931554,14.7142597899655,0 -17.245493075963,14.7142613504739,0 -17.2454932144274,14.7142629068287,0 -17.2454933867367,14.7142648676398,0 -17.2454934903942,14.7142668327305,0 -17.245493524453,14.714268800303,0 -17.2454934898136,14.7142707676379,0 -17.2454933846012,14.7142727329463,0 -17.2454932106444,14.7142746934999,0 -17.2454929679155,14.7142766465883,0 -17.2454926554678,14.7142785904136,0 -17.2454922760675,14.714280523142,0 -17.2454918278303,14.7142824420812,0 -17.2454913116568,14.7142843445116,0 -17.2454907293849,14.7142862286086,0 -17.2454900800679,14.7142880925741,0 -17.2454893664628,14.7142899336709,0 -17.2454885876136,14.7142917491976,0 -17.2454877453675,14.7142935382327,0 -17.245486840625,14.714295298057,0 -17.2454858742866,14.7142970259511,0 -17.2454848472712,14.7142987210024,0 -17.2454837614077,14.7143003804828,0 -17.2454826166867,14.7143020034887,0 -17.2454814167842,14.7143035863704,0 -17.2454797170285,14.7143056728498,0 -17.2454779452075,14.7143077022014,0 -17.2454761031407,14.7143096707934,0 -17.245474192666,14.714311576801,0 -17.2454722165497,14.7143134183903,0 -17.2454701766204,14.7143151928329,0 -17.2454680756444,14.7143168982949,0 -17.2454659154504,14.714318532048,0 -17.2454636988138,14.7143200931619,0 -17.245461429429,14.7143215797934,0 -17.2454591081966,14.7143229892234,0 -17.2454504218227,14.7143282434628,0 -17.245441904236,14.7143337535736,0 -17.2454335637351,14.7143395140542,0 -17.2454254086279,14.7143455203066,0 -17.2454174444097,14.714351765049,0 -17.2454096803259,14.7143582445778,0 -17.245399154446,14.7143676232207,0 -17.2453889681894,14.7143773509504,0 -17.2453791334937,14.7143874150017,0 -17.2453696613867,14.7143978044253,0 -17.2453605647343,14.714408506447,0 -17.2453518536082,14.7144195074163,0 -17.2453435380989,14.7144307954893,0 -17.2453356282783,14.7144423570154,0 -17.2453281341998,14.7144541765371,0 -17.2453210640973,14.7144662422286,0 -17.245312883758,14.7144813961275,0 -17.2453052464298,14.7144968167273,0 -17.2452981612009,14.7145124849657,0 -17.2452916362314,14.7145283817893,0 -17.2452856806187,14.7145444890393,0 -17.2452802997291,14.7145607867859,0 -17.2452755007851,14.7145772550812,0 -17.2452712900995,14.7145938757934,0 -17.2452676711729,14.7146106281072,0</coordinates></LineString></MultiGeometry>
  </Placemark>
  <Placemark id="routes.24">
	<Style><LineStyle><color>ff0000ff</color></LineStyle><PolyStyle><fill>0</fill></PolyStyle></Style>
	<ExtendedData><SchemaData schemaUrl="#routes">
		<SimpleData name="Shape_Leng">1992.24010459000</SimpleData>
		<SimpleData name="Type">Route</SimpleData>
	</SchemaData></ExtendedData>
      <MultiGeometry><LineString><coordinates>-17.2449509655049,14.7116904331997,0 -17.2455499536573,14.7119502951645,0 -17.2464112069197,14.7125310440882,0 -17.2466541420853,14.7129085926561,0 -17.2472310389969,14.7139449445823,0 -17.2475513061072,14.7145804101801,0 -17.2479142886215,14.715300625937,0 -17.2482631522894,14.7164445739722,0 -17.2485676690751,14.7179801377149,0 -17.2489319614653,14.7194811523293,0 -17.2497175131022,14.7211034183726,0 -17.2509372175463,14.7230867406508,0 -17.251026744499,14.7234857802106,0 -17.2510292659206,14.7237314136523,0 -17.2510320840392,14.7240059455112,0 -17.2510359157793,14.7243792119068,0 -17.2509297108213,14.7246475783151,0 -17.250549926924,14.7260851119056,0 -17.2503980001894,14.7271140064204,0 -17.2505348859518,14.7277908365961,0</coordinates></LineString></MultiGeometry>
  </Placemark>
</Folder>
</Document></kml>
