<?xml version="1.0" encoding="utf-8" ?>
<kml xmlns="http://www.opengis.net/kml/2.2">
<Document id="root_doc">
<Schema name="voies_ruissellement" id="voies_ruissellement">
	<SimpleField name="Shape_Leng" type="float"></SimpleField>
</Schema>
<Folder><name>voies_ruissellement</name>
  <Placemark id="voies_ruissellement.1">
	<Style><LineStyle><color>ff0000ff</color></LineStyle><PolyStyle><fill>0</fill></PolyStyle></Style>
	<ExtendedData><SchemaData schemaUrl="#voies_ruissellement">
		<SimpleData name="Shape_Leng">90.56726545840</SimpleData>
	</SchemaData></ExtendedData>
      <MultiGeometry><LineString><coordinates>-17.2465754773931,14.7147740794668,0 -17.2467101861894,14.7147113378957,0 -17.2467984637945,14.7147026136538,0 -17.2471352927364,14.7146496319234,0 -17.247374848323,14.7145477075011,0</coordinates></LineString></MultiGeometry>
  </Placemark>
  <Placemark id="voies_ruissellement.2">
	<Style><LineStyle><color>ff0000ff</color></LineStyle><PolyStyle><fill>0</fill></PolyStyle></Style>
	<ExtendedData><SchemaData schemaUrl="#voies_ruissellement">
		<SimpleData name="Shape_Leng">187.39966822200</SimpleData>
	</SchemaData></ExtendedData>
      <MultiGeometry><LineString><coordinates>-17.2467227945721,14.715813342285,0 -17.2469193982392,14.715619884663,0 -17.2471714317527,14.7155619336036,0 -17.2473679330397,14.7153355211185,0 -17.2475634539828,14.7148978831997,0 -17.247374848323,14.7145477075011,0</coordinates></LineString></MultiGeometry>
  </Placemark>
  <Placemark id="voies_ruissellement.3">
	<Style><LineStyle><color>ff0000ff</color></LineStyle><PolyStyle><fill>0</fill></PolyStyle></Style>
	<ExtendedData><SchemaData schemaUrl="#voies_ruissellement">
		<SimpleData name="Shape_Leng">26.06312610400</SimpleData>
	</SchemaData></ExtendedData>
      <MultiGeometry><LineString><coordinates>-17.2448201928126,14.7236299718047,0 -17.2447702600811,14.7237246604786,0 -17.2446682677335,14.7238071194796,0</coordinates></LineString></MultiGeometry>
  </Placemark>
  <Placemark id="voies_ruissellement.4">
	<Style><LineStyle><color>ff0000ff</color></LineStyle><PolyStyle><fill>0</fill></PolyStyle></Style>
	<ExtendedData><SchemaData schemaUrl="#voies_ruissellement">
		<SimpleData name="Shape_Leng">506.29807098500</SimpleData>
	</SchemaData></ExtendedData>
      <MultiGeometry><LineString><coordinates>-17.2471334935677,14.7209359104778,0 -17.2467689733518,14.7214417150322,0 -17.2461985878072,14.7215987458782,0 -17.2458628134717,14.7219745354263,0 -17.2456523887214,14.722672594594,0 -17.2454576886993,14.72306350406,0 -17.2451993351252,14.7232277263763,0 -17.2450700588588,14.7232876213575,0 -17.2448201928126,14.7236299718047,0 -17.2444637636983,14.7236334276527,0 -17.244403004891,14.7237140284746,0 -17.2443307928323,14.7239305996914,0 -17.2442167817329,14.7240792886241,0</coordinates></LineString></MultiGeometry>
  </Placemark>
  <Placemark id="voies_ruissellement.5">
	<Style><LineStyle><color>ff0000ff</color></LineStyle><PolyStyle><fill>0</fill></PolyStyle></Style>
	<ExtendedData><SchemaData schemaUrl="#voies_ruissellement">
		<SimpleData name="Shape_Leng">196.13913091400</SimpleData>
	</SchemaData></ExtendedData>
      <MultiGeometry><LineString><coordinates>-17.2478618600901,14.7263505193164,0 -17.2485665681497,14.7266547505545,0 -17.2487715705341,14.7266706272488,0 -17.2490955711727,14.7269271024209,0 -17.2493746622406,14.7272410996417,0</coordinates></LineString></MultiGeometry>
  </Placemark>
  <Placemark id="voies_ruissellement.6">
	<Style><LineStyle><color>ff0000ff</color></LineStyle><PolyStyle><fill>0</fill></PolyStyle></Style>
	<ExtendedData><SchemaData schemaUrl="#voies_ruissellement">
		<SimpleData name="Shape_Leng">145.60296750000</SimpleData>
	</SchemaData></ExtendedData>
      <MultiGeometry><LineString><coordinates>-17.2479159531496,14.7271268312129,0 -17.2479180003118,14.7273264879145,0 -17.248209882699,14.7273124183854,0 -17.2484907974831,14.7273361242775,0 -17.248708032192,14.7276699938261,0 -17.248854816469,14.7277459923789,0</coordinates></LineString></MultiGeometry>
  </Placemark>
  <Placemark id="voies_ruissellement.7">
	<Style><LineStyle><color>ff0000ff</color></LineStyle><PolyStyle><fill>0</fill></PolyStyle></Style>
	<ExtendedData><SchemaData schemaUrl="#voies_ruissellement">
		<SimpleData name="Shape_Leng">268.89409809600</SimpleData>
	</SchemaData></ExtendedData>
      <MultiGeometry><LineString><coordinates>-17.247575411828,14.7262513966745,0 -17.2478618600901,14.7263505193164,0 -17.2477695017654,14.7265354887895,0 -17.2479159531496,14.7271268312129,0 -17.2483239119859,14.7271463796184,0 -17.2485585661577,14.727247884559,0 -17.2487133216747,14.7274329120509,0 -17.2489326716492,14.7278103111065,0</coordinates></LineString></MultiGeometry>
  </Placemark>
  <Placemark id="voies_ruissellement.8">
	<Style><LineStyle><color>ff0000ff</color></LineStyle><PolyStyle><fill>0</fill></PolyStyle></Style>
	<ExtendedData><SchemaData schemaUrl="#voies_ruissellement">
		<SimpleData name="Shape_Leng">266.61917650300</SimpleData>
	</SchemaData></ExtendedData>
      <MultiGeometry><LineString><coordinates>-17.2475280570646,14.7240008361007,0 -17.2473532118495,14.7244467257242,0 -17.2472491806156,14.7250347270332,0 -17.2471890871672,14.725374382666,0 -17.2472792891724,14.7259134187495,0 -17.247575411828,14.7262513966745,0</coordinates></LineString></MultiGeometry>
  </Placemark>
  <Placemark id="voies_ruissellement.9">
	<Style><LineStyle><color>ff0000ff</color></LineStyle><PolyStyle><fill>0</fill></PolyStyle></Style>
	<ExtendedData><SchemaData schemaUrl="#voies_ruissellement">
		<SimpleData name="Shape_Leng">213.27072208600</SimpleData>
	</SchemaData></ExtendedData>
      <MultiGeometry><LineString><coordinates>-17.2490391089504,14.7251422997622,0 -17.2490968439334,14.7253630458932,0 -17.2491273191593,14.7256759878115,0 -17.2491356008895,14.7259123576283,0 -17.2491794203791,14.72597476359,0 -17.2491807606063,14.7261054114919,0 -17.2494431241022,14.7262623221273,0 -17.2496592246948,14.726241461875,0 -17.250037519914,14.7264654265115,0</coordinates></LineString></MultiGeometry>
  </Placemark>
  <Placemark id="voies_ruissellement.10">
	<Style><LineStyle><color>ff0000ff</color></LineStyle><PolyStyle><fill>0</fill></PolyStyle></Style>
	<ExtendedData><SchemaData schemaUrl="#voies_ruissellement">
		<SimpleData name="Shape_Leng">400.46756928800</SimpleData>
	</SchemaData></ExtendedData>
      <MultiGeometry><LineString><coordinates>-17.2476082865764,14.7230151355726,0 -17.2475341095313,14.7233706295569,0 -17.2475280570646,14.7240008361007,0 -17.2478770624192,14.7242934743907,0 -17.24852824457,14.7247806129229,0 -17.2490391089504,14.7251422997622,0 -17.2492638484906,14.7253014123006,0 -17.2497093942666,14.7255342402973,0</coordinates></LineString></MultiGeometry>
  </Placemark>
  <Placemark id="voies_ruissellement.11">
	<Style><LineStyle><color>ff0000ff</color></LineStyle><PolyStyle><fill>0</fill></PolyStyle></Style>
	<ExtendedData><SchemaData schemaUrl="#voies_ruissellement">
		<SimpleData name="Shape_Leng">837.67895155300</SimpleData>
	</SchemaData></ExtendedData>
      <MultiGeometry><LineString><coordinates>-17.2469976144237,14.7205224485932,0 -17.2471334935677,14.7209359104778,0 -17.247138582571,14.7214326193301,0 -17.2470969515501,14.7220762058014,0 -17.2472179385041,14.7227255695776,0 -17.2476082865764,14.7230151355726,0 -17.2480071117139,14.7226891487367,0 -17.2485307992591,14.7224280965069,0 -17.2487347972945,14.7221356361778,0 -17.2491457925065,14.7221316440012,0 -17.2493598021183,14.7222388536987,0 -17.2495247569577,14.7224644572863,0 -17.2497701951346,14.7225195932012,0 -17.2499732500334,14.7226607505376,0 -17.2500760739566,14.7229221952084,0 -17.2501516923996,14.7230115217789,0 -17.2502970703812,14.7233615931949,0 -17.2504075419093,14.7239292465966,0 -17.2505157079656,14.7241977434512,0 -17.2505893860255,14.724362430666,0 -17.2507746842954,14.724457248444,0</coordinates></LineString></MultiGeometry>
  </Placemark>
  <Placemark id="voies_ruissellement.12">
	<Style><LineStyle><color>ff0000ff</color></LineStyle><PolyStyle><fill>0</fill></PolyStyle></Style>
	<ExtendedData><SchemaData schemaUrl="#voies_ruissellement">
		<SimpleData name="Shape_Leng">175.11748056200</SimpleData>
	</SchemaData></ExtendedData>
      <MultiGeometry><LineString><coordinates>-17.245193094368,14.7192404533395,0 -17.2441734246317,14.7197639122176,0 -17.2437552364607,14.7199785918288,0</coordinates></LineString></MultiGeometry>
  </Placemark>
  <Placemark id="voies_ruissellement.13">
	<Style><LineStyle><color>ff0000ff</color></LineStyle><PolyStyle><fill>0</fill></PolyStyle></Style>
	<ExtendedData><SchemaData schemaUrl="#voies_ruissellement">
		<SimpleData name="Shape_Leng">433.08232219500</SimpleData>
	</SchemaData></ExtendedData>
      <MultiGeometry><LineString><coordinates>-17.2459952856207,14.7187543947594,0 -17.2462374678819,14.7176278727399,0 -17.2465959211434,14.7174986218226,0 -17.2466528761537,14.7170924820693,0 -17.246938423503,14.7168529042878,0 -17.2470439153567,14.7166228643744,0 -17.2471381393617,14.7163457303544,0 -17.2474722177157,14.7160125782483,0 -17.2478625121977,14.7155433761432,0</coordinates></LineString></MultiGeometry>
  </Placemark>
</Folder>
</Document></kml>
