{
"type": "FeatureCollection",
"name": "limites_cdr",
"crs": { "type": "name", "properties": { "name": "urn:ogc:def:crs:EPSG::32628" } },
"features": [
{ "type": "Feature", "properties": { "CODE": 4100012, "NOM": "Rufisque", "THEME": "LA", "PAYS": "SN", "DATANOM": "DAKAR", "DATANUM": "ND-28-XIII", "IDUU_1": "94b65c14-9535-4a97-8785-1755dca2f1ba", "Shape_Leng": 86085.671836199996, "Shape_Area": 356828205.11699998 }, "geometry": { "type": "MultiPolygon", "coordinates": [ [ [ [ 270101.0, 1625090.0 ], [ 270035.0, 1624675.0 ], [ 270006.0, 1624308.0 ], [ 269947.0, 1623951.0 ], [ 269933.0, 1623574.0 ], [ 269910.0, 1623181.0 ], [ 269866.0, 1622718.0 ], [ 269853.0, 1622366.0 ], [ 269809.0, 1622019.0 ], [ 269729.0, 1621677.0 ], [ 269715.0, 1621315.0 ], [ 269691.0, 1621019.0 ], [ 269642.0, 1620663.0 ], [ 269552.0, 1620347.0 ], [ 269533.0, 1620041.0 ], [ 269479.0, 1619694.0 ], [ 269455.0, 1619398.0 ], [ 269456.0, 1619087.0 ], [ 269443.0, 1618818.0 ], [ 269414.0, 1618410.0 ], [ 269375.0, 1618058.0 ], [ 269337.0, 1617559.0 ], [ 269279.0, 1616861.0 ], [ 269245.0, 1616586.0 ], [ 269206.0, 1616315.0 ], [ 269126.0, 1615953.0 ], [ 269087.0, 1615662.0 ], [ 269048.0, 1615275.0 ], [ 269034.0, 1614914.0 ], [ 268995.0, 1614537.0 ], [ 268981.0, 1614287.0 ], [ 268944.0, 1613807.0 ], [ 268930.0, 1613837.0 ], [ 268915.0, 1613863.0 ], [ 268898.0, 1613889.0 ], [ 268860.0, 1613937.0 ], [ 268829.0, 1613970.0 ], [ 268806.0, 1613990.0 ], [ 268751.0, 1614032.0 ], [ 268721.0, 1614074.0 ], [ 268709.0, 1614093.0 ], [ 268693.0, 1614125.0 ], [ 268681.0, 1614157.0 ], [ 268665.0, 1614204.0 ], [ 268660.0, 1614233.0 ], [ 268658.0, 1614282.0 ], [ 268665.0, 1614377.0 ], [ 268665.0, 1614416.0 ], [ 268660.0, 1614464.0 ], [ 268645.0, 1614530.0 ], [ 268633.0, 1614573.0 ], [ 268620.0, 1614609.0 ], [ 268605.0, 1614646.0 ], [ 268586.0, 1614684.0 ], [ 268555.0, 1614736.0 ], [ 268494.0, 1614817.0 ], [ 268480.0, 1614842.0 ], [ 268473.0, 1614858.0 ], [ 268469.0, 1614875.0 ], [ 268467.0, 1614894.0 ], [ 268471.0, 1614955.0 ], [ 268471.0, 1614975.0 ], [ 268460.0, 1615081.0 ], [ 268454.0, 1615121.0 ], [ 268443.0, 1615185.0 ], [ 268427.0, 1615247.0 ], [ 268394.0, 1615350.0 ], [ 268368.0, 1615416.0 ], [ 268332.0, 1615491.0 ], [ 268309.0, 1615533.0 ], [ 268257.0, 1615619.0 ], [ 268212.0, 1615684.0 ], [ 268165.0, 1615743.0 ], [ 268094.0, 1615758.0 ], [ 268110.0, 1615831.0 ], [ 268089.0, 1615888.0 ], [ 268031.0, 1616032.0 ], [ 267989.0, 1616128.0 ], [ 267935.0, 1616241.0 ], [ 267863.0, 1616377.0 ], [ 267804.0, 1616478.0 ], [ 267684.0, 1616678.0 ], [ 267485.0, 1617019.0 ], [ 267427.0, 1617124.0 ], [ 267340.0, 1617296.0 ], [ 267297.0, 1617369.0 ], [ 267267.0, 1617415.0 ], [ 267217.0, 1617481.0 ], [ 267076.0, 1617646.0 ], [ 267038.0, 1617694.0 ], [ 267005.0, 1617739.0 ], [ 266971.0, 1617792.0 ], [ 266937.0, 1617848.0 ], [ 266840.0, 1618034.0 ], [ 266794.0, 1618113.0 ], [ 266722.0, 1618224.0 ], [ 266660.0, 1618316.0 ], [ 266607.0, 1618386.0 ], [ 266554.0, 1618449.0 ], [ 266489.0, 1618519.0 ], [ 266434.0, 1618574.0 ], [ 266289.0, 1618716.0 ], [ 266267.0, 1618742.0 ], [ 266224.0, 1618802.0 ], [ 266196.0, 1618831.0 ], [ 266164.0, 1618855.0 ], [ 266102.0, 1618899.0 ], [ 266039.0, 1618945.0 ], [ 266002.0, 1618970.0 ], [ 265941.0, 1619005.0 ], [ 265864.0, 1619041.0 ], [ 265852.0, 1619071.0 ], [ 265836.0, 1619148.0 ], [ 265823.0, 1619186.0 ], [ 265794.0, 1619236.0 ], [ 265758.0, 1619321.0 ], [ 265732.0, 1619375.0 ], [ 265702.0, 1619425.0 ], [ 265665.0, 1619476.0 ], [ 265641.0, 1619504.0 ], [ 265618.0, 1619529.0 ], [ 265507.0, 1619624.0 ], [ 265481.0, 1619650.0 ], [ 265456.0, 1619678.0 ], [ 265434.0, 1619705.0 ], [ 265412.0, 1619737.0 ], [ 265352.0, 1619838.0 ], [ 265331.0, 1619872.0 ], [ 265306.0, 1619905.0 ], [ 265276.0, 1619938.0 ], [ 265181.0, 1620038.0 ], [ 265140.0, 1620078.0 ], [ 265083.0, 1620128.0 ], [ 264930.0, 1620258.0 ], [ 264881.0, 1620304.0 ], [ 264830.0, 1620357.0 ], [ 264783.0, 1620412.0 ], [ 264745.0, 1620463.0 ], [ 264712.0, 1620512.0 ], [ 264622.0, 1620653.0 ], [ 264588.0, 1620700.0 ], [ 264556.0, 1620740.0 ], [ 264440.0, 1620869.0 ], [ 264423.0, 1620883.0 ], [ 264406.0, 1620895.0 ], [ 264392.0, 1620903.0 ], [ 264374.0, 1620910.0 ], [ 264366.0, 1620914.0 ], [ 264340.0, 1620939.0 ], [ 264304.0, 1620980.0 ], [ 264271.0, 1621034.0 ], [ 264202.0, 1621164.0 ], [ 264169.0, 1621216.0 ], [ 264075.0, 1621339.0 ], [ 263947.0, 1621511.0 ], [ 263876.0, 1621599.0 ], [ 263809.0, 1621673.0 ], [ 263634.0, 1621853.0 ], [ 263359.0, 1622143.0 ], [ 263063.0, 1622439.0 ], [ 263003.0, 1622497.0 ], [ 262579.0, 1622889.0 ], [ 262513.0, 1622944.0 ], [ 262438.0, 1623005.0 ], [ 262245.0, 1623139.0 ], [ 262185.0, 1623187.0 ], [ 262164.0, 1623206.0 ], [ 261977.0, 1623319.0 ], [ 261920.0, 1623361.0 ], [ 261907.0, 1623376.0 ], [ 261823.0, 1623441.0 ], [ 261754.0, 1623511.0 ], [ 261619.0, 1623633.0 ], [ 261572.0, 1623668.0 ], [ 261415.0, 1623781.0 ], [ 261079.0, 1624049.0 ], [ 260923.0, 1624168.0 ], [ 260808.0, 1624253.0 ], [ 260671.0, 1624350.0 ], [ 260541.0, 1624437.0 ], [ 260287.0, 1624597.0 ], [ 259924.0, 1624827.0 ], [ 259754.0, 1624938.0 ], [ 259616.0, 1625035.0 ], [ 259534.0, 1625095.0 ], [ 259298.0, 1625278.0 ], [ 259134.0, 1625392.0 ], [ 259090.0, 1625428.0 ], [ 259057.0, 1625457.0 ], [ 259002.0, 1625511.0 ], [ 258965.0, 1625553.0 ], [ 258871.0, 1625664.0 ], [ 258743.0, 1625808.0 ], [ 258709.0, 1625844.0 ], [ 258660.0, 1625890.0 ], [ 258597.0, 1625940.0 ], [ 258532.0, 1625984.0 ], [ 258363.0, 1626085.0 ], [ 257941.0, 1626367.0 ], [ 257568.0, 1626607.0 ], [ 257501.0, 1626648.0 ], [ 257382.0, 1626718.0 ], [ 257199.0, 1626818.0 ], [ 256435.0, 1627215.0 ], [ 256338.0, 1627262.0 ], [ 256221.0, 1627312.0 ], [ 255800.0, 1627476.0 ], [ 255592.0, 1627551.0 ], [ 255183.0, 1627686.0 ], [ 255106.0, 1627708.0 ], [ 255020.0, 1627727.0 ], [ 254973.0, 1627740.0 ], [ 254936.0, 1627754.0 ], [ 254845.0, 1627793.0 ], [ 254726.0, 1627828.0 ], [ 254675.0, 1627838.0 ], [ 254641.0, 1627840.0 ], [ 254580.0, 1627837.0 ], [ 254538.0, 1627830.0 ], [ 254504.0, 1627820.0 ], [ 254459.0, 1627800.0 ], [ 254423.0, 1627781.0 ], [ 254398.0, 1627763.0 ], [ 254374.0, 1627739.0 ], [ 254340.0, 1627698.0 ], [ 254329.0, 1627678.0 ], [ 254325.0, 1627667.0 ], [ 254322.0, 1627648.0 ], [ 254324.0, 1627625.0 ], [ 254327.0, 1627613.0 ], [ 254333.0, 1627599.0 ], [ 254341.0, 1627586.0 ], [ 254364.0, 1627558.0 ], [ 254391.0, 1627544.0 ], [ 254394.0, 1627538.0 ], [ 254390.0, 1627528.0 ], [ 254385.0, 1627522.0 ], [ 254369.0, 1627511.0 ], [ 254343.0, 1627499.0 ], [ 254335.0, 1627498.0 ], [ 254326.0, 1627500.0 ], [ 254309.0, 1627509.0 ], [ 254287.0, 1627528.0 ], [ 254239.0, 1627582.0 ], [ 254218.0, 1627603.0 ], [ 254191.0, 1627623.0 ], [ 254165.0, 1627639.0 ], [ 254129.0, 1627655.0 ], [ 253977.0, 1627713.0 ], [ 253809.0, 1627767.0 ], [ 253749.0, 1627788.0 ], [ 253643.0, 1627832.0 ], [ 253565.0, 1627866.0 ], [ 253490.0, 1627904.0 ], [ 253409.0, 1627950.0 ], [ 253362.0, 1627981.0 ], [ 253276.0, 1628044.0 ], [ 253228.0, 1628075.0 ], [ 253165.0, 1628110.0 ], [ 253096.0, 1628143.0 ], [ 253039.0, 1628167.0 ], [ 252974.0, 1628190.0 ], [ 252762.0, 1628256.0 ], [ 252498.0, 1628343.0 ], [ 252277.0, 1628407.0 ], [ 252268.0, 1628412.0 ], [ 252225.0, 1628436.0 ], [ 252189.0, 1628454.0 ], [ 252118.0, 1628485.0 ], [ 252050.0, 1628511.0 ], [ 251943.0, 1628546.0 ], [ 251909.0, 1628556.0 ], [ 251785.0, 1628583.0 ], [ 251747.584400000050664, 1628593.476399999111891 ], [ 251807.925999999977648, 1628898.830600000917912 ], [ 251827.645600000396371, 1628981.078600000590086 ], [ 251838.260200000368059, 1629028.636399999260902 ], [ 251857.310200000181794, 1629031.8114 ], [ 251866.835199999623001, 1629041.336500000208616 ], [ 251881.651899999938905, 1629077.319900000467896 ], [ 251798.043399999849498, 1629204.32010000012815 ], [ 251761.800900000147521, 1629223.710200000554323 ], [ 251735.212500000372529, 1629279.150000000372529 ], [ 251745.636699999682605, 1629282.940700000151992 ], [ 251838.163200000301003, 1629572.086100000888109 ], [ 252046.347900000400841, 1630011.587200000882149 ], [ 252127.308699999935925, 1630358.561599999666214 ], [ 252196.703599999658763, 1630555.180400000885129 ], [ 252335.493400000035763, 1630855.891699999570847 ], [ 252381.75650000013411, 1631064.076400000602007 ], [ 252428.769899999722838, 1631238.025800000876188 ], [ 252497.41469999961555, 1631492.011700000613928 ], [ 252552.737300000153482, 1631740.962600000202656 ], [ 252552.804299999959767, 1631741.2642 ], [ 252593.111899999901652, 1631838.586799999698997 ], [ 252686.20990000013262, 1632096.292700000107288 ], [ 252765.060200000181794, 1632139.6491 ], [ 252777.713200000114739, 1632133.073400000110269 ], [ 252783.332399999722838, 1632149.69620000012219 ], [ 252783.442300000227988, 1632149.7566 ], [ 253035.215499999932945, 1632823.4199 ], [ 253038.943199999630451, 1632833.393799999728799 ], [ 253040.751500000245869, 1632838.2324 ], [ 253026.015300000086427, 1632941.02280000038445 ], [ 253103.120900000445545, 1633372.813200000673532 ], [ 253149.384200000204146, 1634113.025399999693036 ], [ 253149.384200000204146, 1634452.28940000012517 ], [ 253164.805100000463426, 1634760.711200000718236 ], [ 253257.331699999980628, 1635315.870400000363588 ], [ 253257.331699999980628, 1635952.085899999365211 ], [ 253257.331699999980628, 1635992.748099999502301 ], [ 253257.331699999980628, 1636302.82010000012815 ], [ 253103.120900000445545, 1637243.50620000064373 ], [ 253072.278500000014901, 1637690.717800000682473 ], [ 252871.80449999962002, 1638353.8246 ], [ 252625.067099999636412, 1638908.983799999579787 ], [ 252622.454400000162423, 1638913.606599999591708 ], [ 252600.176300000399351, 1638953.02170000039041 ], [ 252424.593000000342727, 1639263.668800000101328 ], [ 252347.487599999643862, 1639572.090600000694394 ], [ 252261.197599999606609, 1639696.263900000602007 ], [ 252126.894799999892712, 1639977.847300000488758 ], [ 252182.0, 1640011.0 ], [ 252534.0, 1640231.0 ], [ 252628.0, 1640286.0 ], [ 252695.0, 1640321.0 ], [ 252794.0, 1640368.0 ], [ 252839.0, 1640386.0 ], [ 252944.0, 1640421.0 ], [ 252991.0, 1640441.0 ], [ 253046.0, 1640471.0 ], [ 253117.0, 1640520.0 ], [ 253156.0, 1640544.0 ], [ 253192.0, 1640563.0 ], [ 253300.0, 1640613.0 ], [ 253452.0, 1640696.0 ], [ 253524.0, 1640729.0 ], [ 253691.0, 1640796.0 ], [ 253791.0, 1640842.0 ], [ 253873.0, 1640881.0 ], [ 253988.0, 1640941.0 ], [ 254202.0, 1641072.0 ], [ 254289.0, 1641120.0 ], [ 254393.0, 1641171.0 ], [ 254688.0, 1641305.0 ], [ 254866.0, 1641388.0 ], [ 254951.0, 1641431.0 ], [ 255100.0, 1641513.0 ], [ 255165.0, 1641543.0 ], [ 255197.0, 1641554.0 ], [ 255327.0, 1641597.0 ], [ 255388.0, 1641623.0 ], [ 255433.0, 1641648.0 ], [ 255505.0, 1641701.0 ], [ 255545.0, 1641725.0 ], [ 255593.0, 1641747.0 ], [ 255675.0, 1641775.0 ], [ 255711.0, 1641792.0 ], [ 255740.0, 1641812.0 ], [ 255778.0, 1641845.0 ], [ 255791.0, 1641853.0 ], [ 255820.0, 1641866.0 ], [ 255943.0, 1641914.0 ], [ 256070.0, 1641970.0 ], [ 256186.0, 1642026.0 ], [ 256270.0, 1642069.0 ], [ 256430.0, 1642156.0 ], [ 256572.0, 1642230.0 ], [ 256770.0, 1642329.0 ], [ 256855.0, 1642379.0 ], [ 256878.0, 1642389.0 ], [ 256898.0, 1642395.0 ], [ 256916.0, 1642398.0 ], [ 256956.0, 1642400.0 ], [ 256976.0, 1642405.0 ], [ 256988.0, 1642411.0 ], [ 257047.0, 1642449.0 ], [ 257082.0, 1642467.0 ], [ 257118.0, 1642482.0 ], [ 257196.0, 1642507.0 ], [ 257223.0, 1642519.0 ], [ 257261.0, 1642541.0 ], [ 257333.0, 1642597.0 ], [ 257369.0, 1642620.0 ], [ 257430.0, 1642650.0 ], [ 257549.0, 1642697.0 ], [ 257607.0, 1642723.0 ], [ 257668.0, 1642757.0 ], [ 257782.0, 1642828.0 ], [ 257839.0, 1642859.0 ], [ 257912.0, 1642892.0 ], [ 258056.0, 1642947.0 ], [ 258130.0, 1642978.0 ], [ 258333.0, 1643082.0 ], [ 258382.0, 1643104.0 ], [ 258485.0, 1643147.0 ], [ 258542.0, 1643174.0 ], [ 258596.0, 1643204.0 ], [ 258700.0, 1643268.0 ], [ 258760.0, 1643300.0 ], [ 258821.0, 1643326.0 ], [ 258944.0, 1643374.0 ], [ 258997.0, 1643398.0 ], [ 259050.0, 1643427.0 ], [ 259141.0, 1643482.0 ], [ 259199.0, 1643514.0 ], [ 259373.0, 1643598.0 ], [ 259851.0, 1643840.0 ], [ 260170.0, 1643998.0 ], [ 260297.0, 1644064.0 ], [ 260511.0, 1644182.0 ], [ 260619.0, 1644239.0 ], [ 260775.0, 1644318.0 ], [ 261253.0, 1644549.0 ], [ 261328.0, 1644588.0 ], [ 261432.0, 1644648.0 ], [ 261476.0, 1644672.0 ], [ 261545.0, 1644703.0 ], [ 261639.0, 1644731.0 ], [ 261678.0, 1644747.0 ], [ 261700.0, 1644760.0 ], [ 261718.0, 1644772.0 ], [ 261768.0, 1644818.0 ], [ 261786.0, 1644833.0 ], [ 261804.0, 1644845.0 ], [ 261826.0, 1644857.0 ], [ 261867.0, 1644874.0 ], [ 261955.0, 1644900.0 ], [ 262005.0, 1644921.0 ], [ 262069.0, 1644952.0 ], [ 262229.0, 1645039.0 ], [ 262389.0, 1645112.0 ], [ 262511.0, 1645162.0 ], [ 262651.0, 1645211.0 ], [ 262975.0, 1645374.0 ], [ 263222.0, 1645485.0 ], [ 263555.0, 1645643.0 ], [ 263798.0, 1645767.0 ], [ 264001.0, 1645876.0 ], [ 264093.0, 1645923.0 ], [ 264157.0, 1645954.0 ], [ 264287.0, 1646013.0 ], [ 264351.0, 1646045.0 ], [ 264436.0, 1646094.0 ], [ 264581.0, 1646192.0 ], [ 264654.0, 1646235.0 ], [ 264732.0, 1646273.0 ], [ 264909.0, 1646349.0 ], [ 265094.0, 1646441.0 ], [ 265326.0, 1646564.0 ], [ 265611.0, 1646721.0 ], [ 265678.0, 1646756.0 ], [ 265807.0, 1646819.0 ], [ 265881.0, 1646564.0 ], [ 266009.0, 1646351.0 ], [ 266087.0, 1646178.0 ], [ 266215.0, 1645995.0 ], [ 266349.0, 1645741.0 ], [ 266535.0, 1645201.0 ], [ 266669.0, 1644972.0 ], [ 266838.0, 1644723.0 ], [ 266936.0, 1644511.0 ], [ 267045.0, 1644297.0 ], [ 267117.0, 1644083.0 ], [ 267281.0, 1643824.0 ], [ 267421.0, 1643519.0 ], [ 267560.0, 1643280.0 ], [ 267729.0, 1642969.0 ], [ 267838.0, 1642725.0 ], [ 267931.0, 1642507.0 ], [ 268013.0, 1642248.0 ], [ 268142.0, 1641998.0 ], [ 268220.0, 1641785.0 ], [ 268307.0, 1641586.0 ], [ 268395.0, 1641377.0 ], [ 268504.0, 1641103.0 ], [ 268627.0, 1640823.0 ], [ 268730.0, 1640615.0 ], [ 268869.0, 1640325.0 ], [ 268968.0, 1640045.0 ], [ 269122.0, 1639811.0 ], [ 269240.0, 1639578.0 ], [ 269333.0, 1639405.0 ], [ 269410.0, 1639313.0 ], [ 269538.0, 1639140.0 ], [ 269494.0, 1638860.0 ], [ 269623.0, 1638474.0 ], [ 269839.0, 1638118.0 ], [ 269993.0, 1637639.0 ], [ 270128.0, 1637406.0 ], [ 270319.0, 1637044.0 ], [ 270498.0, 1636776.0 ], [ 270667.0, 1636599.0 ], [ 270775.0, 1636303.0 ], [ 270920.0, 1636024.0 ], [ 271028.0, 1635739.0 ], [ 271090.0, 1635560.0 ], [ 271106.0, 1635392.0 ], [ 271107.0, 1635168.0 ], [ 271103.0, 1634979.0 ], [ 271114.0, 1634720.0 ], [ 271110.0, 1634547.0 ], [ 271117.0, 1634266.0 ], [ 271087.0, 1634006.0 ], [ 271043.0, 1633797.0 ], [ 271019.0, 1633501.0 ], [ 270919.0, 1632992.0 ], [ 270920.0, 1632803.0 ], [ 270906.0, 1632568.0 ], [ 270867.0, 1632323.0 ], [ 270813.0, 1632022.0 ], [ 270799.0, 1631803.0 ], [ 270754.0, 1631614.0 ], [ 270744.0, 1631333.0 ], [ 270746.0, 1631145.0 ], [ 270676.0, 1630844.0 ], [ 270661.0, 1630620.0 ], [ 270623.0, 1630350.0 ], [ 270614.0, 1630044.0 ], [ 270595.0, 1629809.0 ], [ 270576.0, 1629513.0 ], [ 270521.0, 1629192.0 ], [ 270475.0, 1628851.0 ], [ 270471.793100000359118, 1628734.17710000090301 ], [ 270468.0, 1628596.0 ], [ 270444.0, 1628315.0 ], [ 270441.0, 1628010.0 ], [ 270392.0, 1627438.0 ], [ 270396.0, 1626867.0 ], [ 270361.0, 1626618.0 ], [ 270321.0, 1626424.0 ], [ 270241.0, 1626133.0 ], [ 270147.0, 1625643.0 ], [ 270101.0, 1625090.0 ] ] ] ] } }
]
}
